name,address,type,lat,lng
역삼아레나빌딩,서울특별시 강남구 언주로 425 (역삼동),starbucks,37.501087,127.043069
논현역사거리,서울특별시 강남구 강남대로 538 (논현동),starbucks,37.510178,127.022223
신사역성일빌딩,서울특별시 강남구 강남대로 584 (논현동),starbucks,37.5139309,127.0206057
국기원사거리,서울특별시 강남구 테헤란로 125 (역삼동),starbucks,37.499517,127.031495
대치재경빌딩,서울특별시 강남구 남부순환로 2947 (대치동),starbucks,37.494668,127.062583
봉은사역,서울특별시 강남구 봉은사로 619 (삼성동),starbucks,37.515000,127.063196
압구정윤성빌딩,서울특별시 강남구 논현로 834 (신사동),starbucks,37.5227934,127.0286009
코엑스별마당,서울특별시 강남구 영동대로 513 (삼성동),starbucks,37.510150,127.060275
삼성역섬유센터R,서울특별시 강남구 테헤란로 518 (대치동),starbucks,37.507750,127.060651
압구정R,서울특별시 강남구 언주로 861 (신사동),starbucks,37.5273669,127.033061
수서역R,서울특별시 강남구 광평로 281 (수서동),starbucks,37.488008,127.102650
양재강남빌딩R,서울특별시 강남구 남부순환로 2621 (도곡동),starbucks,37.485192,127.036685
선릉동신빌딩R,서울특별시 강남구 테헤란로 409 (삼성동),starbucks,37.505321,127.050409
봉은사로선정릉,서울특별시 강남구 봉은사로 446 (삼성동),starbucks,37.511293,127.048409
강남오거리,서울특별시 강남구 봉은사로2길 39 (역삼동),starbucks,37.502117,127.026672
스타필드코엑스몰R,서울특별시 강남구 영동대로 513 (삼성동) 코엑스 A106호,starbucks,37.50999,127.061455
강남구청정문,서울특별시 강남구 학동로 419 (청담동),starbucks,37.518181,127.045995
도곡공원,서울특별시 강남구 도곡로 205 (역삼동),starbucks,37.492805,127.041309
강남R,서울특별시 강남구 강남대로 390 (역삼동),starbucks,37.497711,127.028439
대치은마사거리,서울특별시 강남구 도곡로 457 (대치동),starbucks,37.498973,127.060172
청담영동대로,서울특별시 강남구 영동대로 720 (청담동),starbucks,37.522156,127.056449
압구정,서울특별시 강남구 압구정로30길 17 (신사동),starbucks,37.526283,127.02956
신사가로수,서울특별시 강남구 가로수길 59,starbucks,37.521933,127.022521
청담스타R,서울특별시 강남구 도산대로57길 24 (청담동),starbucks,37.525216,127.041827
강남우성,서울특별시 강남구 강남대로 328 (역삼동),starbucks,37.492396,127.03091
학동사거리,서울특별시 강남구 도산대로 328 (논현동),starbucks,37.52236449999999,127.03795430000002
대치사거리,서울특별시 강남구 삼성로 402 (대치동),starbucks,37.503331,127.058817
포스코사거리,서울특별시 강남구 테헤란로 505 (삼성동) 화진빌딩,starbucks,37.5075307,127.05742710000004
을지병원사거리,"서울특별시 강남구 논현로 752 (논현동,구산빌딩)",starbucks,37.5191632,127.0286446
신사역,서울특별시 강남구 도산대로 108 (논현동) 렉스타워,starbucks,37.5162021,127.0207428
도곡역,서울특별시 강남구 남부순환로 2909 (대치동),starbucks,37.492167,127.057398
서울세관사거리,서울특별시 강남구 언주로 650 (논현동) 한국건설기술인협회,starbucks,37.514887,127.035653
청담사거리,서울특별시 강남구 도산대로 458 (청담동) 리츠타워,starbucks,37.5236351,127.04686509999999
한티역,"서울특별시 강남구 도곡로 408, 디마크빌딩 101호 (대치동)",starbucks,37.496801,127.055055
역삼초교사거리,서울특별시 강남구 역삼로 123 (역삼동),starbucks,37.4941059,127.03299730000003
코엑스몰,서울특별시 강남구 영동대로 513 (삼성동) O103호,starbucks,37.513715,127.059245
가로수길,"서울특별시 강남구 논현로175길 94, 1~2층 (신사동)",starbucks,37.5231593,127.02162499999997
역삼대로,"서울특별시 강남구 테헤란로 211, 한국고등교육재단빌딩 1층 (역삼동)",starbucks,37.501623,127.039375
역삼포스코,"서울특별시 강남구 테헤란로 134, P&S TOWER (역삼동)",starbucks,37.499721,127.033582
강남대로,"서울특별시 강남구 강남대로 456, 한석타워 2층 1-2호 (역삼동)",starbucks,37.50314,127.025546
청담,"서울특별시 강남구 도산대로 532, 인희빌딩 1층 (청담동)",starbucks,37.5243631,127.05155990000003
삼성도심공항,서울특별시 강남구 테헤란로87길 33 (삼성동),starbucks,37.5097863,127.05791339999996
삼성교,"서울특별시 강남구 영동대로86길 12, 동남유화빌딩 1층",starbucks,37.507794,127.06517
학동역,서울특별시 강남구 논현로 704 (논현동),starbucks,37.51464884,127.0307302
대치,서울특별시 강남구 도곡로 511 (대치동),starbucks,37.49966175,127.0622171
신세계푸드마켓도곡,"서울특별시 강남구 언주로30길 57, 타워팰리스Ⅱ F 지하1층 (도곡동)",starbucks,37.490298,127.054895
삼성,"서울특별시 강남구 테헤란로 443, 애플트리타워 1층 (삼성동)",starbucks,37.50703529,127.0555503
선릉세화빌딩,서울특별시 강남구 테헤란로64길 18 (대치동) 1층,starbucks,37.50377562,127.051196
압구정역,"서울특별시 강남구 압구정로 170, 관영빌딩 1층 지하1층 (신사동)",starbucks,37.52674095,127.0281105
압구정로,서울특별시 강남구 압구정로42길 32 (신사동),starbucks,37.52680046,127.0347174
구역삼사거리,서울특별시 강남구 논현로 401 (역삼동),starbucks,37.49592355,127.0388645
큰길타워,"서울특별시 강남구 테헤란로 223, 큰길타워빌딩 (역삼동)",starbucks,37.50236693,127.0407
강남구청역,"서울특별시 강남구 선릉로 669, 웰빙센터 1층 (논현동)",starbucks,37.5165849,127.04124330000002
대치역,서울특별시 강남구 남부순환로 2936 (대치동) 107호,starbucks,37.493554,127.061874
포이,서울특별시 강남구 논현로 88 (개포동),starbucks,37.47781106,127.0451411
아크플레이스,서울특별시 강남구 테헤란로 142 (역삼동),starbucks,37.49971982,127.0349084
학여울역,서울특별시 강남구 영동대로 215 (대치동),starbucks,37.49803646,127.0684943
선정릉역,서울특별시 강남구 봉은사로 407 (삼성동) 에프오빌딩,starbucks,37.51075489999999,127.04455970000003
삼성현대힐,서울특별시 강남구 삼성로 605 (삼성동),starbucks,37.51354184,127.0527183
GS타워,서울특별시 강남구 논현로 508 (역삼동),starbucks,37.5018592,127.03727759999992
압구정미소,서울특별시 강남구 논현로 841 (신사동),starbucks,37.52405601,127.027915
선릉역,"서울특별시 강남구 테헤란로 334, LG화재 빌딩 (역삼동)",starbucks,37.50393894,127.0485135
코엑스사거리,서울특별시 강남구 영동대로 616 (삼성동),starbucks,37.515351,127.060109
역삼럭키,서울특별시 강남구 도곡로 183 (역삼동),starbucks,37.492209,127.039389
신압구정,서울특별시 강남구 언주로174길 29 (신사동),starbucks,37.528115,127.036441
아크로힐스논현,"서울특별시 강남구 봉은사로 304, 금강빌딩 1-2층 (역삼동)",starbucks,37.50898041,127.0403869
강남비젼타워,"서울특별시 강남구 테헤란로2길 27, 1층 101호 (역삼동)",starbucks,37.4964557,127.02968850000002
압구정로데오역,"서울특별시 강남구 선릉로 836, 삼원빌딩 1,2층 (청담동)",starbucks,37.526549,127.040437
르네상스사거리,서울특별시 강남구 테헤란로 306 (역삼동),starbucks,37.502721,127.044308
포스코,"서울특별시 강남구 삼성로86길 7, 1층 (대치동)",starbucks,37.50576,127.057966
선릉로,"서울특별시 강남구 선릉로93길 22, 대흥빌딩 1층 (역삼동)",starbucks,37.505053,127.046577
논현힐탑,서울특별시 강남구 논현로 648 (논현동),starbucks,37.5115577,127.03226199999994
도산가로수길,"서울특별시 강남구 도산대로 134, 2층 (논현동)",starbucks,37.51736229999999,127.02329570000006
대치한티,서울특별시 강남구 선릉로 324 (대치동),starbucks,37.4984818,127.052066
개포동,서울특별시 강남구 선릉로 34 (개포동),starbucks,37.4828551359882,127.0607152444621
수서역사거리,서울특별시 강남구 광평로 280 (수서동),starbucks,37.4873267937748,127.103140081887
코엑스아셈타워,서울특별시 강남구 영동대로 517 (삼성동),starbucks,37.513019,127.059838
센터필드R,서울특별시 강남구 테헤란로 231 (역삼동),starbucks,37.50369465391196,127.04172081609172
도산사거리,서울특별시 강남구 언주로 727 (논현동),starbucks,37.51966,127.0341
강남세곡,서울특별시 강남구 헌릉로569길 18 (세곡동),starbucks,37.467274319644,127.099929726
대치삼성,서울특별시 강남구 영동대로 237 (대치동),starbucks,37.500313,127.066961
언주역,서울특별시 강남구 봉은사로 222 (역삼동),starbucks,37.507775,127.036472
강남역신분당역사,서울특별시 강남구 강남대로 396 (역삼동),starbucks,37.4970572543978,127.028180714381
삼성역,서울특별시 강남구 테헤란로 620 (대치동),starbucks,37.509206962541256,127.06560851480327
테헤란로아남타워,서울특별시 강남구 테헤란로 311 (역삼동),starbucks,37.50383,127.04487
강남논현,서울특별시 강남구 강남대로 512 (논현동),starbucks,37.5078978596254,127.023338614644
삼성동,서울특별시 강남구 영동대로96길 12 (삼성동),starbucks,37.510843366121534,127.06363342044263
청담역,서울특별시 강남구 삼성로 709 (청담동),starbucks,37.5194407323478,127.049552661542
압구정현대아파트 ,서울특별시 강남구 논현로175길 38 (신사동),starbucks,37.52521971236768,127.0256601858147
역삼이마트,서울특별시 강남구 역삼로 310 (역삼동),starbucks,37.499367,127.048425
강남세곡DT,서울특별시 강남구 헌릉로 727 (세곡동),starbucks,37.466993809277,127.118330806807
미아뉴타운,서울특별시 강북구 삼양로 161 (미아동),starbucks,37.618319,127.021072
강북구청사거리,서울특별시 강북구 도봉로 365 (수유동),starbucks,37.6400354,127.0273766
미아사거리역,서울특별시 강북구 도봉로 32 (미아동),starbucks,37.611809,127.0306971
수유역,서울특별시 강북구 도봉로 342 (번동),starbucks,37.6380167,127.02613500000007
미아역,서울특별시 강북구 도봉로 196 (미아동),starbucks,37.626148,127.026578
파라스파라서울,서울특별시 강북구 삼양로 689 (우이동) 파라스파라서울 지하1층,starbucks,37.664380074618,127.008566467101
발산역사거리,서울특별시 강서구 공항대로 248 (마곡동),starbucks,37.558509,126.835096
마곡역,서울특별시 강서구 공항대로 168 (마곡동),starbucks,37.559611,126.826298
우장산역,서울특별시 강서구 강서로 267 (내발산동),starbucks,37.549501,126.835984
마곡사이언스타워R,서울특별시 강서구 마곡동로 62 (마곡동),starbucks,37.5605261,126.833887
방화DT,서울특별시 강서구 방화대로 375 (방화동),starbucks,37.574339,126.816415
마곡나루역,서울특별시 강서구 마곡중앙로 161-17 (마곡동),starbucks,37.56813,126.82614
마곡GMG,"서울특별시 강서구 마곡중앙6로 16 (마곡동) 117,118,119,120호",starbucks,37.560487,126.829667
가양역,서울특별시 강서구 양천로 476 (등촌동),starbucks,37.561640,126.853327
화곡DT,서울특별시 강서구 등촌로 57 (화곡동),starbucks,37.535149,126.863232
양천향교역,서울특별시 강서구 강서로 463 (마곡동),starbucks,37.566964,126.840731
화곡동,서울특별시 강서구 화곡로 142(화곡동),starbucks,37.5405115,126.8372413
등촌,서울특별시 강서구 공항대로 329 (등촌동),starbucks,37.5582043,126.84433919999992
염창역,서울특별시 강서구 공항대로 627 (염창동),starbucks,37.547359,126.874436
발산역,서울특별시 강서구 강서로 388 (등촌동) 그랜드마트,starbucks,37.56033,126.839279
까치산역,서울특별시 강서구 강서로13길 3 (화곡동),starbucks,37.532303,126.846077
발산역5번출구,"서울특별시 강서구 강서로52길 43 (내발산동, DH647), 1층 일부",starbucks,37.5579224739977,126.84054030692
화곡역8번출구,"서울특별시 강서구 강서로 179 (화곡동), 1층 일부",starbucks,37.542514,126.839062
강서우장산,"서울특별시 강서구 강서로 231 (화곡동, 우장산역 해링턴 타워), 116/117/118/119/120호",starbucks,37.546305,126.835923
등촌대로,"서울특별시 강서구 공항대로 543 (염창동, 센터스퀘어)",starbucks,37.55101,126.86638
가양역사거리,"서울특별시 강서구 화곡로 416 (등촌동) 가양더스카이벨리5차 지식산업센터 101, 102, 114,~117호",starbucks,37.56007,126.855372
내발산,"서울특별시 강서구 강서로 323 (내발산동), 101/102호",starbucks,37.55467,126.83672
마곡웰튼,"서울특별시 강서구 마곡중앙5로 22 (마곡동), 104/105/106호",starbucks,37.56754,126.82553
김포공항DT,서울특별시 강서구 개화동로 517 (방화동),starbucks,37.566396,126.80608
강서NC,서울특별시 강서구 강서로56길 17 (등촌동),starbucks,37.560088,126.840534
마곡나루공원,서울특별시 강서구 마곡중앙5로 47 (마곡동),starbucks,37.567007,126.822246
송정역,"서울특별시 강서구 공항대로 38 (공항동), 1층 일부",starbucks,37.56097361346,126.811557734972
강서구청사거리,서울특별시 강서구 화곡로 350 (화곡동),starbucks,37.5549266,126.8523133
낙성대역,서울특별시 관악구 남부순환로 1908 (봉천동),starbucks,37.477946,126.961193
관악서울대입구R,서울특별시 관악구 관악로 158 (봉천동),starbucks,37.479343,126.95278
신림DT,서울특별시 관악구 남부순환로 1419 (신림동),starbucks,37.480935,126.908407
서울대역,서울특별시 관악구 남부순환로 1817 (봉천동),starbucks,37.481599,126.9522
낙성대DT,서울특별시 관악구 남부순환로 1948 (봉천동),starbucks,37.476169,126.965005
사당,서울특별시 관악구 남부순환로 2082-25,starbucks,37.47601,126.980997
보라매대교,서울특별시 관악구 보라매로3길 23 (봉천동) 1층,starbucks,37.491449,126.925432
신림,서울특별시 관악구 신림로 355-1 (신림동),starbucks,37.48609493,126.9291602
신림타임스트림,서울특별시 관악구 신림로 330 타임스트림 1층,starbucks,37.48385383,126.9301799
서울대입구역,서울특별시 관악구 남부순환로 1812 (봉천동),starbucks,37.48118,126.951324
서울대입구역8번출구,서울특별시 관악구 남부순환로 1831 (봉천동),starbucks,37.4812061,126.9536942
봉천역,서울특별시 관악구 남부순환로 1730 (봉천동),starbucks,37.4820375340064,126.942287792538
건국대,서울특별시 광진구 능동로 117 (화양동),starbucks,37.5415592,127.0711244
어린이대공원역,서울특별시 광진구 능동로 243 (군자동),starbucks,37.551946,127.076404
아차산역,서울특별시 광진구 천호대로 676 (구의동),starbucks,37.5505388,127.0898757
올림픽대교북단,서울특별시 광진구 광나루로 608 (구의동),starbucks,37.541129,127.09524
구의DT,서울특별시 광진구 광나루로 519 (구의동),starbucks,37.5451984,127.0871587
자양사거리,서울특별시 광진구 아차산로 355,starbucks,37.5371158,127.0825821
군자역,서울특별시 광진구 천호대로 548 (군자동) 중앙빌딩,starbucks,37.556965,127.079032
광나루,"서울특별시 광진구 아차산로 607, 1,2층 (광장동)",starbucks,37.547442,127.105934
건대스타시티,서울특별시 광진구 아차산로 262 (자양동),starbucks,37.538544,127.073009
건대입구,서울특별시 광진구 능동로 107 (화양동),starbucks,37.5406604,127.07072249999999
구의역,서울특별시 광진구 아차산로 373 (구의동),starbucks,37.53698,127.084015
광장,서울특별시 광진구 아차산로 537-17 (광장동),starbucks,37.542518,127.099651
건국클래식,서울특별시 광진구 능동로 90 (자양동) 더 클래식500,starbucks,37.538466,127.071271
건대후문,서울특별시 광진구 능동로 172 (화양동),starbucks,37.5460180138476,127.074001181744
중곡역,"서울특별시 광진구 능동로 400 (중곡동) 1층 108,109,110,111,112,118 6개호실",starbucks,37.5650109508732,127.08459679908
자양이마트,서울특별시 광진구 아차산로 272 (자양동) 지하1층,starbucks,37.537817,127.072597
뚝섬유원지역,"서울특별시 광진구 능동로 18 (자양동, 이튼타워리버3차)",starbucks,37.532684640479,127.067878503557
군자사거리,서울특별시 광진구 천호대로 549 (중곡동) 1층,starbucks,37.5575666,127.079334
금천구청역,"서울특별시 금천구 시흥대로73길 67 (시흥동), 엠메디컬타워 1층",starbucks,37.455983,126.895727
가산에스케이,"서울특별시 금천구 가산디지털1로 171 (가산동), SK V1센터 1층",starbucks,37.48061318,126.8805702
독산사거리,서울특별시 금천구 시흥대로 426 (독산동),starbucks,37.471528328745485,126.89856062315228
금천시흥,서울특별시 금천구 시흥대로 164 (시흥동),starbucks,37.448624,126.903183
가산디지털단지역,"서울특별시 금천구 벚꽃로 298 (가산동), 대륭포스트타워 6차 1층",starbucks,37.481324,126.883779
금천독산,서울특별시 금천구 두산로 70 (독산동),starbucks,37.46914,126.895246
가산디지털,"서울특별시 금천구 가산디지털1로 168 (가산동), 우림라이온스밸리 B동 1층",starbucks,37.4798346,126.88249969999992
마리오아울렛,서울특별시 금천구 벚꽃로 266 마리오아울렛3관,starbucks,37.478701,126.885076
가산브이타워,"서울특별시 금천구 가산디지털1로 128 (가산동), V-TOWER 1층",starbucks,37.477221,126.883683
가산그레이트,"서울특별시 금천구 디지털로9길 32, 갑을그레이트밸리 1층 (가산동)",starbucks,37.4794491,126.88747680000006
독산역,"서울특별시 금천구 가산디지털1로 16 (가산동), 107-2, 108, 109호",starbucks,37.4676446,126.8876698
가산현대아울렛,"서울특별시 금천구 디지털로10길 9 (가산동), 1층 일부",starbucks,37.477581,126.888603
가산케이에스,"서울특별시 금천구 벚꽃로36길 30 (가산동), 가산KS타워 1층",starbucks,37.4807071377614,126.885099760167
월계역,"서울특별시 노원구 초안산로2라길26 월계동(104,105,106호)",starbucks,37.6295,127.0574
월계트레이더스,서울특별시 노원구 마들로3길 15 (월계동),starbucks,37.6277053,127.06149779999998
상계초교사거리,서울특별시 노원구 노원로 449 (상계동),starbucks,37.656776,127.066442
공릉DT,서울특별시 노원구 동일로 1015 (공릉동),starbucks,37.6206884,127.0743116
노원마들역,"서울특별시 노원구 노원로 569 (상계동, 임광아파트)",starbucks,37.660941,127.058008
공릉역,서울특별시 노원구 동일로 1081 (공릉동),starbucks,37.626337,127.072252
은행사거리,"서울특별시 노원구 중계로 217, 중흥빌딩 103,203호 (중계동)",starbucks,37.65048737,127.0759861
노원KT,"서울특별시 노원구 노해로 502, (주)KT 노원사옥 (상계동)",starbucks,37.654562,127.063617
광운대,서울특별시 노원구 석계로 104 (월계동),starbucks,37.6231479,127.06070090000003
중계역,"서울특별시 노원구 동일로 1339, 대한빌딩 (상계동)",starbucks,37.64817,127.062244
노원역,서울특별시 노원구 동일로 1413 (상계동) 1층,starbucks,37.654751,127.060034
월계이마트,서울특별시 노원구 마들로3길 15 (월계동),starbucks,37.627155,127.062094
태릉입구역DT,서울특별시 노원구 화랑로 469 (공릉동),starbucks,37.61942,127.07932
노원상계,서울특별시 노원구 동일로215길 2 (상계동),starbucks,37.651535,127.061026
창동이마트,서울특별시 도봉구 노해로65길 4 (창동),starbucks,37.651645,127.046869
쌍문역,서울특별시 도봉구 도봉로 480 (창동),starbucks,37.648456,127.034783
도봉구청,서울특별시 도봉구 마들로 665 (도봉동),starbucks,37.6695034764443,127.04603799266
쌍문도봉로,서울특별시 도봉구 도봉로 444 (창동),starbucks,37.6453516,127.0331011
도봉로DT,서울특별시 도봉구 도봉로 635 (쌍문동),starbucks,37.6611805929041,127.041630065957
방학역,"서울특별시 도봉구 도봉로 684 (방학동)101,102,113,114,115호",starbucks,37.6653125,127.0433125
창동역,서울특별시 도봉구 마들로13길 61 (창동),starbucks,37.6545021055909,127.049672533607
노량진동,"서울특별시 동작구 노량진로 190 (노량진동, 고려교육타워-어바니엘한강) 101호~105호",starbucks,37.513068,126.946537
남성역,서울특별시 동작구 사당로 219 (사당동),starbucks,37.4841198,126.9725739
상도역,서울특별시 동작구 상도로37길 1 (상도1동),starbucks,37.5031936,126.9484581
보라매공원R,"서울특별시 동작구 보라매로5길 35 (신대방동, 파크스퀘어,보라매현대APT)",starbucks,37.49226212712864,126.92334570798292
이수자이,서울특별시 동작구 사당로 300 (사당동 이수자이),starbucks,37.484414,126.980047
노량진역,서울특별시 동작구 노량진로 134 (노량진동),starbucks,37.51339,126.940879
신대방삼거리역,서울특별시 동작구 상도로 102 (상도동),starbucks,37.499914,126.931766
중앙대,서울특별시 동작구 흑석로 75-1 (흑석동),starbucks,37.506933,126.958125
숭실대입구역,서울특별시 동작구 상도로 354 (상도동),starbucks,37.4968346,126.95271230000003
숭실대,서울특별시 동작구 사당로 4 (상도동),starbucks,37.49538073,126.9548891
사당역,"서울특별시 동작구 동작대로 21, 양지빌딩 1-3층 (사당동)",starbucks,37.47849216,126.9813456
서강대프라자,서울특별시 마포구 백범로 35 (신수동),starbucks,37.551073,126.943096
상암YTN,서울특별시 마포구 상암산로 76 (상암동),starbucks,37.579183,126.892315
마포용강동,서울특별시 마포구 토정로 295 (용강동),starbucks,37.541186,126.942209
홍대입구역사거리R,서울특별시 마포구 양화로 125 (서교동),starbucks,37.554636,126.92036
마포경찰서후문,서울특별시 마포구 마포대로 173-14 (아현동),starbucks,37.550800,126.953432
공덕,서울특별시 마포구 마포대로 130 (공덕동),starbucks,37.545913,126.952956
합정폴리스R,"서울특별시 마포구 양화로 45 (서교동, 메세나폴리스)",starbucks,37.5509,126.9134
홍대공항철도역,서울특별시 마포구 양화로 178 (동교동),starbucks,37.557491,126.925146
마포염리,서울특별시 마포구 독막로 311 (염리동),starbucks,37.543876,126.94768
서강광흥창역,서울특별시 마포구 서강로 69 (창전동),starbucks,37.549377,126.931661
합정,"서울특별시 마포구 월드컵로1길 14 (합정동) 마포한강푸르지오 110, 111, 112-2",starbucks,37.549630,126.912999
서강대흥역,서울특별시 마포구 백범로 89-5 (대흥동),starbucks,37.548178,126.941576
서교동사거리,서울특별시 마포구 양화로 105 (서교동),starbucks,37.553376,126.918564
상암사보이시티,서울특별시 마포구 월드컵북로54길 17 (상암동),starbucks,37.58147,126.888983
신촌오거리,서울특별시 마포구 신촌로16길 10 (노고산동),starbucks,37.555137,126.934694
상암디지털큐브,서울특별시 마포구 상암산로 34,starbucks,37.5763132,126.8892477
상수역,서울특별시 마포구 독막로 88 (상수동),starbucks,37.5474817,126.92321579999998
공덕오거리,서울특별시 마포구 마포대로 86 (도화동) 창강빌딩,starbucks,37.5424641,126.95057730000008
서강대,서울특별시 마포구 백범로 23 (신수동),starbucks,37.5524584,126.9378262
상암MBC,서울특별시 마포구 성암로 267 (상암동),starbucks,37.581297,126.890908
홍대역,"서울특별시 마포구 양화로 165, 상진빌딩 1층 (동교동)",starbucks,37.557175,126.923654
동교,"서울특별시 마포구 월드컵북로 22, 영준빌딩 1층 (동교동)",starbucks,37.556928,126.919819
애오개역,"서울특별시 마포구 마포대로 201, 마포트라팰리스II (아현동)",starbucks,37.55218737,126.9555203
상암DMC,"서울특별시 마포구 월드컵북로 375, DMC이안오피스텔1단지 102호,202호 (상암동)",starbucks,37.577623,126.890684
마포일진빌딩,"서울특별시 마포구 마포대로 45, 일진빌딩 1층 (도화동)",starbucks,37.54043451,126.9463168
마포아크로,서울특별시 마포구 마포대로 68 (도화동) 마포아크로타워,starbucks,37.54145556,126.948819
홍대삼거리,서울특별시 마포구 와우산로 64 (상수동),starbucks,37.550266,126.923179
망원역,서울특별시 마포구 월드컵로 74 (서교동),starbucks,37.555829,126.910637
마포이마트,서울특별시 마포구 백범로 212 (신공덕동) 마포이마트,starbucks,37.542421,126.953341
합정메세나몰,"서울특별시 마포구 양화로 45 (서교동, 메세나폴리스)",starbucks,37.551004,126.913848
아현역대로,서울특별시 마포구 신촌로 262 (아현동),starbucks,37.557097,126.954834
디지털미디어시티역,서울특별시 마포구 성암로 179 (상암동),starbucks,37.57609,126.89897
홍대역8번출구,서울특별시 마포구 양화로 166 (동교동),starbucks,37.556743503599,126.924166543608
합정푸르지오,"서울특별시 마포구 월드컵로3길 14 (합정동, 마포 한강 2차 푸르지오)",starbucks,37.55109819950203,126.9123070691659
홍대동교,서울특별시 마포구 양화로 192 (동교동),starbucks,37.5583280533329,126.926246501876
망원한강공원,서울특별시 마포구 마포나루길 435 (망원동),starbucks,37.5545625,126.8956875
가재울뉴타운,"서울특별시 서대문구 가재울미래로 2 (남가좌동, DMC파크뷰자이)",starbucks,37.5749841,126.9164441
남가좌사거리,"서울특별시 서대문구 거북골로 84 (남가좌동, DMC에코자이104동)",starbucks,37.577386,126.920815
신촌역,서울특별시 서대문구 신촌로 73 (창천동),starbucks,37.556167,126.934673
연희동,서울특별시 서대문구 연희로 97 (연희동),starbucks,37.566702,126.930475
아현역,"서울특별시 서대문구 신촌로35길 10 (북아현동, e편한세상신촌 4단지)",starbucks,37.558421,126.956349
홍제역,서울특별시 서대문구 통일로 451 (홍제동),starbucks,37.588658,126.943864
연세백양로,서울특별시 서대문구 연세로 50 (신촌동) 연세대학교,starbucks,37.562644,126.937529
연희DT,서울특별시 서대문구 연희로 144 (연희동),starbucks,37.5702143,126.9339777
경기대,서울특별시 서대문구 충정로 53 (충정로2가),starbucks,37.56367995,126.9646045
신촌,서울특별시 서대문구 연세로 10-1 (창천동),starbucks,37.55648577,126.9371155
이대R,서울특별시 서대문구 이화여대길 34 (대현동),starbucks,37.55848315,126.9459643
연세종합관,"서울특별시 서대문구 연세로 50, 연세세브란스 종합관 (신촌동)",starbucks,37.56177145,126.9414708
이대ECC,서울특별시 서대문구 이화여대길 52 (대현동) 이화여자대학교 B415호,starbucks,37.561631,126.94735
연대,서울특별시 서대문구 연세로 35 (창천동),starbucks,37.558706,126.936727
신촌아트레온,서울특별시 서대문구 신촌로 129 (창천동),starbucks,37.556505,126.940238
충정로역,서울특별시 서대문구 충정로 23,starbucks,37.56137,126.963219
연대동문,서울특별시 서대문구 성산로 565 (대신동),starbucks,37.566385,126.946273
신촌명물거리,"서울특별시 서대문구 명물길 24, 1-5층 (창천동)",starbucks,37.557796,126.938095
충정타워,"서울특별시 서대문구 서소문로 21, 충정타워빌딩 1층 (충정로3가)",starbucks,37.559869,126.964110
이대역,서울특별시 서대문구 신촌로 183 (대현동),starbucks,37.5570861,126.9462802
북가좌DT,서울특별시 서대문구 응암로 85 (북가좌동),starbucks,37.580758,126.911478
현대신촌,서울특별시 서대문구 신촌로 83 (창천동),starbucks,37.5560830579515,126.935844876509
방배로,서울특별시 서초구 방배로 52 (방배동),starbucks,37.4793434,126.9994968
강남교보타워R,서울특별시 서초구 강남대로 465 (서초동),starbucks,37.503789,127.024075
방배다이치빌딩,서울특별시 서초구 방배로 114 (방배동),starbucks,37.484329,126.995872
센트럴F1,서울특별시 서초구 신반포로 176 (반포동),starbucks,37.505148,127.004395
서초역이화빌딩,서울특별시 서초구 반포대로21길 3 (서초동),starbucks,37.487931,127.009126
서초구청,서울특별시 서초구 남부순환로 2557 (서초동),starbucks,37.484206,127.030103
서초우성사거리,서울특별시 서초구 강남대로 343 (서초동),starbucks,37.493545,127.02943
이수역사거리,"서울특별시 서초구 서초대로 3-4 (방배동, 방배디오슈페리움1)",starbucks,37.48585,126.983027
강남대로신사,서울특별시 서초구 강남대로 595 (잠원동),starbucks,37.51489,127.019469
서울고속터미널,서울특별시 서초구 신반포로 194 (반포동),starbucks,37.504406,127.005648
강남대로논현R,서울특별시 서초구 강남대로85길 5 (반포동),starbucks,37.507413,127.022568
방배,서울특별시 서초구 방배로 211,starbucks,37.491914,126.99049739999998
방배카페거리,서울특별시 서초구 방배중앙로 162 (방배동),starbucks,37.4934767,126.9865297
서초법원,서울특별시 서초구 서초대로 274 (서초동),starbucks,37.492970,127.011875
청계산입구역,서울특별시 서초구 청계산로 203 (신원동),starbucks,37.447323,127.056250
사당로데오,서울특별시 서초구 방배천로 5-4(방배동),starbucks,37.4772752,126.98216049999996
파미에파크R,서울특별시 서초구 사평대로 205 (반포동) CENTRALCITY,starbucks,37.5030521,127.004362
양재역,서울특별시 서초구 강남대로 202 (양재동) 모산빌딩,starbucks,37.4820475,127.0367682
논현역,서울특별시 서초구 강남대로 557 (잠원동) 1~2층,starbucks,37.5111983,127.0205875
이수역,서울특별시 서초구 동작대로 112 (방배동),starbucks,37.4864664,126.98274029999993
내방역,서울특별시 서초구 방배로 184 (방배동) 대풍빌딩,starbucks,37.490004,126.992455
서초파라곤,서울특별시 서초구 서초대로74길 29 (서초동) 서초파라곤,starbucks,37.494941,127.027422
서울아트센터,서울특별시 서초구 남부순환로 2395 (서초동) 호경빌딩,starbucks,37.480866,127.012368
서초중앙로,서울특별시 서초구 서초중앙로 225,starbucks,37.501691,127.01152
센트럴시티,서울특별시 서초구 신반포로 176 (반포동),starbucks,37.504707,127.004459
강남삼성타운,서울특별시 서초구 서초대로78길 24 (서초동),starbucks,37.49562035,127.0277144
방배역,서울특별시 서초구 방배로 84 (방배동),starbucks,37.48200755,126.9976438
반포역,서울특별시 서초구 신반포로 257 (잠원동) 신반포11차상가,starbucks,37.508589,127.011959
남부터미널,"서울특별시 서초구 서초중앙로 26, 래미안서초유니빌 1층 101호 (서초동)",starbucks,37.48467334,127.0169464
뉴코아강남,서울특별시 서초구 잠원로 69 (잠원동) 킴스클럽,starbucks,37.51031339,127.0069582
강남서초초교,"서울특별시 서초구 서초대로77길 27, 유빌딩 1,2층 (서초동)",starbucks,37.5000875,127.02549090000002
교대,서울특별시 서초구 서초중앙로 118 (서초동),starbucks,37.4923611,127.0142207
하이브랜드,"서울특별시 서초구 매헌로 16, 리빙관 101호 (양재동)",starbucks,37.46330766,127.0368447
신논현역,서울특별시 서초구 강남대로 483 (반포동) 청호빌딩,starbucks,37.50529,127.023636
영동2교,"서울특별시 서초구 논현로 139, 대흥빌딩 (양재동)",starbucks,37.48203954,127.0425748
남부터미널역5번출구,서울특별시 서초구 효령로 274 (서초동),starbucks,37.48436736,127.0142192
서래마을입구,서울특별시 서초구 서래로 48 (반포동),starbucks,37.49925284,126.9984801
몬테소리,서울특별시 서초구 강남대로 399 (서초동),starbucks,37.4982695,127.026865
서초역,서울특별시 서초구 반포대로 118 (서초동),starbucks,37.49067495,127.0086118
교대법원,서울특별시 서초구 서초중앙로 164 (서초동),starbucks,37.496329,127.013336
강남GT타워,"서울특별시 서초구 서초대로 411, GT타워 (서초동)",starbucks,37.498056,127.02583300000003
서초동,"서울특별시 서초구 남부순환로339길 64, 현우빌딩 1층 (서초동)",starbucks,37.485941,127.021525
서울교대,"서울특별시 서초구 서초중앙로 64, 1층 (서초동)",starbucks,37.487397,127.015134
강남에비뉴,"서울특별시 서초구 서초대로77길 62, 강남역아이파크 B102~B105 (서초동)",starbucks,37.5027,127.023894
반포자이,서울특별시 서초구 잠원로 24 (반포동),starbucks,37.507170475349405,127.0099189083483
강남역우송빌딩,서울특별시 서초구 서초대로73길 7 (서초동),starbucks,37.4981314601413,127.02527908458
서이초교사거리,서울특별시 서초구 사임당로 143 (서초동),starbucks,37.4918146,127.0252252
서울웨이브아트센터,서울특별시 서초구 잠원로 145-35 (잠원동),starbucks,37.518807,127.00704
길음역,서울특별시 성북구 정릉로 376 (돈암동),starbucks,37.602139,127.025271
미아이마트,서울특별시 성북구 도봉로 17 (길음동),starbucks,37.610678,127.029921
종암DT,서울특별시 성북구 종암로 17 (종암동),starbucks,37.5919525,127.0360401
미아,서울특별시 성북구 동소문로 314 (하월곡동),starbucks,37.607581,127.029303
성신여대정문,서울특별시 성북구 보문로34길 62 (동선동2가),starbucks,37.590910,127.018800
종암,서울특별시 성북구 종암로 122 (종암동),starbucks,37.601095,127.033847
삼선교,서울특별시 성북구 동소문로 10 (동소문동2가),starbucks,37.588696,127.00732070000003
월곡역,"서울특별시 성북구 화랑로 76, 101-1호 (하월곡동)",starbucks,37.601718,127.040446
고대,서울특별시 성북구 고려대로24길 51 (안암동5가),starbucks,37.58397192,127.0297352
현대미아,서울특별시 성북구 동소문로 315 (길음동) 지하1층,starbucks,37.60837822,127.0287483
성신여대,서울특별시 성북구 동소문로24길 12 (동선동1가),starbucks,37.593135,127.018379
안암역,서울특별시 성북구 고려대로 102-2 (안암동5가),starbucks,37.586319,127.030556
한성대입구역,서울특별시 성북구 성북로 11 (성북동1가),starbucks,37.589054,127.004839
고대안암병원,서울특별시 성북구 고려대로 73 (안암동5가),starbucks,37.58687889805418,127.02820333331364
장위뉴타운,서울특별시 성북구 장월로38길 4 (장위동),starbucks,37.6179568965998,127.051535709778
송파나루역DT,서울특별시 송파구 오금로 142 (송파동),starbucks,37.510793,127.1102658
송파헬리오시티,"서울특별시 송파구 송파대로 345 (가락동, 헬리오시티)",starbucks,37.4978563,127.1031325
잠실시그마타워,서울특별시 송파구 올림픽로 289 (신천동),starbucks,37.514567,127.102493
문정법원로R,서울특별시 송파구 송파대로 201 (문정동),starbucks,37.487447,127.119164
송파개롱역,서울특별시 송파구 오금로 420 (가락동),starbucks,37.496956,127.13652
문정하비오,"서울특별시 송파구 송파대로 111 (문정동, 파크하비오) 204동 104호~107호",starbucks,37.481925,127.123446
문정역,"서울특별시 송파구 송파대로 167 (문정동)테라타워 B동 137호~139호,204호",starbucks,37.484813,127.122237
잠실대교남단R,서울특별시 송파구 송파대로 570 타워 730 1층,starbucks,37.515511,127.099006
송파위례,"서울특별시 송파구 위례광장로 230 (장지동, 위례2차아이파크)",starbucks,37.478264,127.144067
송파방이DT,서울특별시 송파구 오금로 241 (방이동),starbucks,37.506564,127.120495
올림픽평화의문,서울특별시 송파구 위례성대로 38 (방이동) 해태그린피아빌라트,starbucks,37.5156426,127.11648190000005
송파아이파크,서울특별시 송파구 법원로 55 (문정동),starbucks,37.479892,127.122379
송파사거리,서울특별시 송파구 송파대로 386 (송파동),starbucks,37.5022788,127.1103904
석촌서호,서울특별시 송파구 석촌호수로 176 (삼전동),starbucks,37.5063929,127.0964684
문정로데오,서울특별시 송파구 동남로 141 (가락동),starbucks,37.491905,127.1262696
올림픽훼미리,서울특별시 송파구 중대로 68 (문정동),starbucks,37.491626,127.116308
올림픽공원남문,서울특별시 송파구 위례성대로 102 (방이동),starbucks,37.5133,127.123113
방이역,"서울특별시 송파구 마천로 53, 1~2층 (오금동)",starbucks,37.508666,127.126569
석촌호수,서울특별시 송파구 석촌호수로 262 (송파동),starbucks,37.509581,127.104993
잠실푸르지오월드,"서울특별시 송파구 올림픽로35가길 9, 잠실푸르지오월드마크 1층 (신천동)",starbucks,37.517649,127.103426
잠실새내역,서울특별시 송파구 올림픽로 96 (잠실동),starbucks,37.511679,127.081062
잠실역,"서울특별시 송파구 송파대로 562 (신천동, 웰리스타워,삼성웰리스아파트) 1층,2층",starbucks,37.515272,127.099231
갤러리아팰리스,"서울특별시 송파구 올림픽로 212, 갤러리아 팰리스 (잠실동)",starbucks,37.51108365,127.0938059
아시아선수촌,서울특별시 송파구 백제고분로 69 (잠실동),starbucks,37.51059,127.079047
올림픽아파트,서울특별시 송파구 양재대로 1220 (방이동),starbucks,37.515315,127.133237
가락본동,서울특별시 송파구 송파대로30길 13 (가락동),starbucks,37.494895,127.118785
석촌역,"서울특별시 송파구 백제고분로 358, 1층 (석촌동)",starbucks,37.5042626,127.10610769999994
가락시장역,"서울특별시 송파구 중대로 121, 롯데캐슬 파인힐 1층 (가락동)",starbucks,37.494299,127.121354
가든파이브,서울특별시 송파구 충민로 10 (문정동) 가든파이브툴,starbucks,37.4782316,127.11937030000001
잠실본동,"서울특별시 송파구 백제고분로 91 (잠실동), 1층",starbucks,37.5086445885442,127.07949103207
송파NC,서울특별시 송파구 충민로 66 (문정동) 가든파이브라이프 패션관1층,starbucks,37.4778761,127.12567478
송파거여역,서울특별시 송파구 오금로 493 (거여동),starbucks,37.4936489571568,127.143698688888
몽촌토성역,서울특별시 송파구 위례성대로 6 (방이동),starbucks,37.516913,127.113127
송파KT,"서울특별시 송파구 잠실로 209 (신천동), 오피스빌딩 1층 2~4호",starbucks,37.5139991,127.1063026
문정법조타운 한양타워,서울특별시 송파구 법원로11길 12 (문정동),starbucks,37.4859909162854,127.117921831574
송파마천사거리DT,서울특별시 송파구 거마로 78 (마천동),starbucks,37.499829,127.147672
목동파리공원,서울특별시 양천구 목동동로 377 (목동),starbucks,37.535336,126.878852
등촌역,서울특별시 양천구 공항대로 566 (목동) 1층 2층,starbucks,37.548884,126.86807
목동행복한,서울특별시 양천구 목동동로 309 (목동),starbucks,37.529147,126.876099
신정DT,서울특별시 양천구 신월로 341 (신정동),starbucks,37.521993,126.858865
목동역,서울특별시 양천구 목동로 203 (신정동) 1층일부,starbucks,37.526684,126.863986
목동오목로,"서울특별시 양천구 오목로 279 (목동) 102,103,104,105호",starbucks,37.525923,126.868438
목동8단지,서울특별시 양천구 목동서로 299 (신정동),starbucks,37.520518,126.868841
오목교역,서울특별시 양천구 오목로 354 (목동),starbucks,37.5235882,126.87652120000007
신월IC DT,서울특별시 양천구 남부순환로 430 (신월동),starbucks,37.5294984,126.831983
목동7단지,서울특별시 양천구 목동서로 213 (목동) 세신비젼프라자,starbucks,37.528012,126.87053
목동5단지,"서울특별시 양천구 목동동로 411, 1동 116호(목동, 부영그린타운3차)",starbucks,37.536706,126.88212
목동,서울특별시 양천구 목동서로 67 (목동) 우성에펠타운,starbucks,37.53638383,126.8785597
현대목동,"서울특별시 양천구 목동동로 257 (목동, 현대하이페리온) 지하2층",starbucks,37.526848,126.875023
목동SBS,"서울특별시 양천구 목동서로 161 (목동), 1/2층 일부",starbucks,37.52896162444895,126.87363009594163
목동트라팰리스,서울특별시 양천구 오목로 299 (목동),starbucks,37.5255,126.8702
목동10단지,"서울특별시 양천구 목동서로 401 (신정동, 대림아크로빌), 상가A동 101,101-1호",starbucks,37.515425616177,126.859603067999
신월동DT,서울특별시 양천구 남부순환로 319 (신월동),starbucks,37.5382923530559,126.827101409243
타임스퀘어R,서울특별시 영등포구 영중로 15 지하 1층 (영등포동4가),starbucks,37.51755,126.90516
샛강역,서울특별시 영등포구 여의대방로 376 (여의도동),starbucks,37.5183551,126.9312716
영등포역,서울특별시 영등포구 경인로 870 (영등포동1가),starbucks,37.5169614,126.9091390
당산대로,서울특별시 영등포구 양평로 22 (당산동6가),starbucks,37.533121,126.903804
여의도IFC몰(L1)R,서울특별시 영등포구 국제금융로 10 (여의도동) 지하1층 178호,starbucks,37.525127,126.925508
여의도KBS R,서울특별시 영등포구 의사당대로 26 (여의도동),starbucks,37.526596,126.918456
여의도화재보험,서울특별시 영등포구 국제금융로6길 38 (여의도동),starbucks,37.521345,126.926004
국회대로,서울특별시 영등포구 국회대로 786 (여의도동),starbucks,37.53026,126.919549
영등포KT,서울특별시 영등포구 영중로 119 (영등포동8가),starbucks,37.526419,126.905314
여의도공원R,서울특별시 영등포구 여의공원로 101 (여의도동),starbucks,37.529231,126.924872
국회의사당역,서울특별시 영등포구 의사당대로 8 (여의도동),starbucks,37.527831,126.916882
여의도역R,서울특별시 영등포구 의사당대로 83 (여의도동) 1층,starbucks,37.523328,126.923439
선유동이레빌딩,서울특별시 영등포구 선유동2로 57 (양평제1동) 이레빌딩,starbucks,37.534109,126.896912
동여의도,서울특별시 영등포구 국제금융로 86 (여의도동) 롯데캐슬 아이비,starbucks,37.5199494,126.9317957
여의도ABL타워,서울특별시 영등포구 의사당대로 147 (여의도동) 알리안츠타워,starbucks,37.518749,126.92779
영등포신길,"서울특별시 영등포구 신길로 137 (신길동) 1,2층",starbucks,37.504566,126.910073
문래역,서울특별시 영등포구 당산로 34 (문래동3가),starbucks,37.517446,126.895258
당산,서울특별시 영등포구 양평로 64 (당산동6가),starbucks,37.535164,126.899942
여의도한양증권,서울특별시 영등포구 국제금융로6길 7 (여의도동) 한양증권,starbucks,37.522418,126.929093
여의도일신,서울특별시 영등포구 은행로 11 (여의도동) 1층 1부,starbucks,37.528,126.920103
신세계타임스퀘어B2,"서울특별시 영등포구 영중로 9, 신세계타임스퀘어점 리빙관 지하2층 (영등포동4가)",starbucks,37.517162,126.905608
하이테크시티,서울특별시 영등포구 경인로 775 (문래동3가) 에이스하이테크시티,starbucks,37.51467062,126.8986474
여의도,서울특별시 영등포구 국제금융로2길 28 (여의도동),starbucks,37.52403519,126.9245179
롯데캐슬여의도,"서울특별시 영등포구 의사당대로 127 (여의도동, 롯데캐슬엠파이어) 1층 104호",starbucks,37.52025214,126.9263678
문래동,"서울특별시 영등포구 선유로 64, 대창타운빌 1층 (문래동3가)",starbucks,37.519602,126.889652
신세계타임스퀘어1F,"서울특별시 영등포구 영중로 9, 신세계백화점 리빙관 1층 (영등포동4가)",starbucks,37.517162,126.905608
여의도호성,"서울특별시 영등포구 여의대방로65길 24, 호성빌딩 1층 (여의도동)",starbucks,37.520176,126.929426
타임스퀘어B2,"서울특별시 영등포구 영중로 15, 지하2층 (영등포동4가)",starbucks,37.516985,126.903387
영등포본동,서울특별시 영등포구 영등포로 254 (영등포동3가),starbucks,37.518713,126.909559
타임스퀘어2F,서울특별시 영등포구 영중로 15 지상2층 (영등포동4가),starbucks,37.516985,126.903387
여의도의사당,서울특별시 영등포구 국회대로74길 12 (여의도동),starbucks,37.530023,126.92109
여의도IFC(1F),서울특별시 영등포구 국제금융로 10 (여의도동),starbucks,37.525273,126.924668
여의도신한투자증권타워,서울특별시 영등포구 여의대로 70 (여의도동),starbucks,37.52498,126.92414
선유도역 1번출구,서울특별시 영등포구 양평로 128 (양평동5가)양평로 128,starbucks,37.538333,126.893612
영등포시장역,서울특별시 영등포구 영중로 79 (영등포동7가),starbucks,37.523475,126.904907
영등포구청역,서울특별시 영등포구 국회대로 558,starbucks,37.52789,126.89608
서울양평역,"서울특별시 영등포구 선유서로24길 6 (양평동1가, 영등포 중흥 S-CLASS)",starbucks,37.523128,126.885809
영등포시장교차로,서울특별시 영등포구 영중로 45 (영등포동6가),starbucks,37.5204239,126.904446
더현대서울(B2)R,서울특별시 영등포구 여의대로 108 (여의도동),starbucks,37.5264,126.92877
당산역사거리,서울특별시 영등포구 양평로 47 (당산동5가),starbucks,37.533984,126.901156
신풍역,서울특별시 영등포구 신풍로 23 (신길동),starbucks,37.5003469620528,126.908438384002
선유도역,서울특별시 영등포구 양평로 115 (양평동4가),starbucks,37.537268,126.894594
불광역,서울특별시 은평구 통일로 715 (대조동),starbucks,37.609382,126.9303971
구파발사거리,서울특별시 은평구 진관3로 21 은평엘크루 101동 105-108호,starbucks,37.639617,126.91881
연신내역사거리,서울특별시 은평구 통일로 842 (불광동),starbucks,37.61862,126.922062
연신내,서울특별시 은평구 통일로 867 (갈현동),starbucks,37.620417,126.919913
구파발역,서울특별시 은평구 진관2로 12,starbucks,37.63446,126.918881
은평구청입구,서울특별시 은평구 은평로 170 (응암동),starbucks,37.601042,126.926789
은평이마트,서울특별시 은평구 은평로 111 (응암동),starbucks,37.60037923,126.9202735
구산역,서울특별시 은평구 연서로 146 (대조동),starbucks,37.611745,126.917678
불광역8번출구,서울특별시 은평구 통일로 746 (불광동),starbucks,37.61199,126.9289
수색,서울특별시 은평구 수색로 216 (수색동),starbucks,37.5804,126.899068
새절역,서울특별시 은평구 증산로 371 (신사동),starbucks,37.5894266730207,126.912863456524
더북한산,서울특별시 은평구 대서문길 24-11 (진관동),starbucks,37.6554576593266,126.947556374345
녹번역,"서울특별시 은평구 통일로 636 (녹번동) 110,111,112,113,114,115호",starbucks,37.603307621312325,126.93528567756574
진관DT,서울특별시 은평구 연서로 645 (진관동),starbucks,37.6501787,126.9361968
연합뉴스,서울특별시 종로구 율곡로2길 25 (수송동),starbucks,37.5743289,126.9804590000005
혜화역,서울특별시 종로구 대학로12길 4 (동숭동)1~2층,starbucks,37.5824779,127.0021850
경희궁로,서울특별시 종로구 새문안로3길 15 (당주동),starbucks,37.571759,126.972343
강북삼성병원,서울특별시 종로구 새문안로 29 (평동),starbucks,37.568546,126.967560
종로평창동,서울특별시 종로구 평창12길 3 (평창동),starbucks,37.606149,126.967213
광화문우체국,서울특별시 종로구 종로 6 (서린동),starbucks,37.569854,126.978083
종로R,서울특별시 종로구 종로 51 (종로2가),starbucks,37.570804,126.983494
독립문역,서울특별시 종로구 송월길 155 경희궁자이 4단지 1층 팰리스애비뉴 4114~4119호,starbucks,37.571432,126.961269
정부서울청사R,서울특별시 종로구 새문안로5가길 28 (적선동),starbucks,37.574411,126.973571
동묘앞역,"서울특별시 종로구 종로 344 (숭인동, 대우디오빌) 101호 일부, 201호 일부",starbucks,37.572700,127.016072
종로구청,서울특별시 종로구 삼봉로 71 (수송동),starbucks,37.572662,126.981138
북촌로,서울특별시 종로구 북촌로4길 23 (계동),starbucks,37.579462,126.986431
종로수송,서울특별시 종로구 종로5길 30 (청진동) 1~3층,starbucks,37.5714931,126.9807831
새문안로,서울특별시 종로구 새문안로 92 (신문로1가) 광화문오피시아빌딩,starbucks,37.5696597,126.9748903
안국,서울특별시 종로구 북촌로 5-1 (재동),starbucks,37.577338,126.985635
삼청동,서울특별시 종로구 삼청로 111-1 (삼청동),starbucks,37.585381,126.9817512
광화문D타워,서울특별시 종로구 종로3길 17 (청진동) D타워,starbucks,37.5714,126.9788297
적선,"서울특별시 종로구 새문안로5길 55, 노스게이트빌딩 1층 (적선동)",starbucks,37.57520431,126.9739361
인사,서울특별시 종로구 인사동길 14 (인사동),starbucks,37.5721293,126.98703490000002
광화문,서울특별시 종로구 세종대로 167 (세종로),starbucks,37.5712293,126.9762872
성대입구,서울특별시 종로구 창경궁로 235 (명륜3가),starbucks,37.582892,126.998392
스페이스본,서울특별시 종로구 사직로8길 4 (사직동) 광화문 풍림스페이스본,starbucks,37.57532212,126.9692494
주얼리시티,서울특별시 종로구 종로 183 (인의동) 효성주얼리시티,starbucks,37.57154914,126.998705
종각,서울특별시 종로구 종로 64 (종로2가),starbucks,37.5699183,126.98452810000003
동숭로아트,서울특별시 종로구 동숭길 110 (동숭동),starbucks,37.582969,127.003876
종로관철,"서울특별시 종로구 종로12길 21, 2층 (관철동)",starbucks,37.569058,126.986013
경복궁역,"서울특별시 종로구 자하문로4길 6, 1층 (통의동)",starbucks,37.5771508,126.97274530000004
이마빌딩,서울특별시 종로구 종로1길 42 (수송동),starbucks,37.5738637,126.97897149999994
마로니에공원,"서울특별시 종로구 대학로 116, 1-2층 (동숭동)",starbucks,37.58154296,127.0023412
종로3가,"서울특별시 종로구 종로 113-1, 1-4층 (종로3가)",starbucks,37.5705527,126.9902055
대학로,"서울특별시 종로구 대학로 57, 홍익대학교 대학로캠퍼스 內 (연건동)",starbucks,37.576509,127.001449
경복궁사거리,"서울특별시 종로구 율곡로 6, B동 101호(중학동, 트윈트리타워)",starbucks,37.575578,126.980581
종로관수,서울특별시 종로구 삼일대로20길 13 (관수동),starbucks,37.569385,126.988665
광화문교보문고,서울특별시 종로구 종로 1 (종로1가),starbucks,37.571017,126.977937
정동,서울특별시 종로구 새문안로 42 (신문로2가),starbucks,37.568578,126.970067
종로플레이스,서울특별시 종로구 창경궁로 120 (인의동),starbucks,37.57319,126.998309
강북삼성병원1층,서울특별시 종로구 새문안로 29 (평동),starbucks,37.568546,126.96756
동숭길입구,서울특별시 종로구 대학로 146 (혜화동),starbucks,37.584236,127.002014
서울대치과병원,서울특별시 종로구 대학로 101 서울대학교 치과병원 신관1층,starbucks,37.57790,126.99965
서대문역,서울특별시 종로구 통일로 134 (평동),starbucks,37.56670,126.96629
숭례문북창,서울특별시 중구 세종대로12길 12 (남대문로4가),starbucks,37.561725,126.976838
을지로4가역,서울특별시 중구 을지로 170 (을지로4가),starbucks,37.566682,126.997285
동대문두타,서울특별시 중구 장충단로 275 (을지로6가),starbucks,37.56892512604548,127.00878383484597
대한상공회의소R,서울특별시 중구 세종대로 39 (남대문로4가) 1층,starbucks,37.560938,126.973702
국립중앙의료원,서울특별시 중구 을지로 251 (을지로6가),starbucks,37.5665160,127.0062376
동국대,서울특별시 중구 서애로 1길 11,starbucks,37.561542,126.998437
신세계본점5F,서울특별시 중구 소공로 63 (충무로1가),starbucks,37.560951,126.981134
을지로내외빌딩R,서울특별시 중구 을지로 51 (을지로2가),starbucks,37.566479,126.983663
대우재단빌딩,서울특별시 중구 퇴계로 18 (남대문로5가),starbucks,37.556781,126.975081
동대문공원,서울특별시 중구 장충단로 229 (광희동1가),starbucks,37.565133,127.007191
을지로국제빌딩,서울특별시 중구 남대문로 109 (다동),starbucks,37.566952,126.982219
동대입구역,서울특별시 중구 장충단로 166 (장충동1가),starbucks,37.559593,127.006142
신당역사거리,서울특별시 중구 다산로 258 (흥인동),starbucks,37.565807,127.016430
연세세브란스,서울특별시 중구 통일로 10 (남대문로5가),starbucks,37.557207,126.97354
회현역,서울특별시 중구 퇴계로 72 (회현동) 리더스뷰남산,starbucks,37.5589809,126.98074670000005
을지로경기빌딩,서울특별시 중구 남대문로10길 9 (삼각동) 경기빌딩,starbucks,37.567172,126.983156
을지로2가,서울특별시 중구 삼일대로 358 (을지로2가),starbucks,37.566347,126.988066
신세계본점6F,서울특별시 중구 퇴계로 77 (충무로1가),starbucks,37.560381,126.980758
서울중앙우체국,서울특별시 중구 소공로 70 (충무로 1가) 서울 중앙 우체국,starbucks,37.561678,126.982117
한국프레스센터,서울특별시 중구 세종대로 124 (태평로1가),starbucks,37.567381,126.977859
명동중앙로,서울특별시 중구 명동길 60 (명동 2가),starbucks,37.5637485,126.9857723
약수역,서울특별시 중구 다산로 129 (신당동),starbucks,37.555437,127.0107253
중구저동,서울특별시 중구 수표로 34 (저동2가),starbucks,37.5643686,126.9903382
명동길,서울특별시 중구 명동10길 41,starbucks,37.5620695,126.9858669
서소문로,서울특별시 중구 서소문로 120 (서소문동) 대한빌딩,starbucks,37.563006,126.974546
신당역,"서울특별시 중구 퇴계로 385, 1층 (흥인동)",starbucks,37.565522,127.014554
명동메트로,서울특별시 중구 명동9가길 14 (을지로1가) 메트로호텔,starbucks,37.565118,126.983681
숭례문,"서울특별시 중구 세종대로 17, 와이즈타워 1층 (남대문로5가)",starbucks,37.55874473,126.9730952
순화동더샵,"서울특별시 중구 칠패로 27, 1층 (순화동)",starbucks,37.560072,126.971931
대한극장,"서울특별시 중구 퇴계로 212 (필동2가) 1,2층",starbucks,37.56105065,126.9952735
환구단,서울특별시 중구 소공로 112 (소공동),starbucks,37.564448,126.979157
무교동,서울특별시 중구 무교로 21 (무교동) 코오롱빌딩 1층,starbucks,37.56781712,126.978738
문화일보,서울특별시 중구 새문안로 22 (충정로1가) 문화일보,starbucks,37.56712291,126.9686642
태평로,"서울특별시 중구 세종대로 72, 대영빌딩 1층 (태평로2가)",starbucks,37.56248285,126.9767928
퍼시픽타워,"서울특별시 중구 세종대로9길 41, 퍼시픽타워 1층 (서소문동)",starbucks,37.56132157,126.9730264
남산단암,"서울특별시 중구 소월로 10, 단암빌딩 (남대문로5가)",starbucks,37.55853622,126.9754585
황학캐슬,서울특별시 중구 청계천로 400 (황학동) 롯데캐슬베네치아,starbucks,37.57124,127.022905
을지로삼화타워,서울특별시 중구 을지로5길 16 (을지로2가) 1층,starbucks,37.566902,126.984707
소공로,"서울특별시 중구 남대문로7길 19, 삼영빌딩 1층 일부 (소공동)",starbucks,37.5637273,126.98076809999998
을지로한국빌딩,"서울특별시 중구 을지로 50, 1층 (을지로 2가)",starbucks,37.565722,126.98329
시청,"서울특별시 중구 을지로 19, 삼성화재삼성빌딩 1층 (을지로1가)",starbucks,37.56629,126.979808
명동역,"서울특별시 중구 퇴계로 101, 건물 전체 (충무로 1가)",starbucks,37.56102,126.98312
명동입구,서울특별시 중구 남대문로 68-1 (명동2가),starbucks,37.563319,126.982242
충무로,서울특별시 중구 충무로 3 (필동1가),starbucks,37.5614959808102,126.992823097196
이마트타워,서울특별시 중구 세종대로7길 37 (순화동) 1층,starbucks,37.5607434636967,126.972528391958
동호로 ,서울특별시 중구 동호로 171 (신당동),starbucks,37.553478403261,127.011305155237
무교로,서울특별시 중구 무교로 15 (무교동),starbucks,37.567399,126.978900
청계크리스탈스퀘어,서울특별시 중구 청계천로 106 (수표동),starbucks,37.5679,126.98933
숭례문SG타워,서울특별시 중구 세종대로 14 (남대문로5가),starbucks,37.5581293,126.9742637
세종대로,서울특별시 중구 세종대로 135-5 (태평로1가),starbucks,37.568678,126.976493
동대문디자인플라자,서울특별시 중구 을지로 281 (을지로7가) 디자인장터,starbucks,37.56743,127.009758
별다방,서울특별시 중구 퇴계로 100 (회현동2가),starbucks,37.5602013,126.9829327
포포인츠명동,서울특별시 중구 삼일대로10길 36 (저동2가),starbucks,37.5657211,126.9893426
명동남산,서울특별시 중구 퇴계로 132 (남산동3가),starbucks,37.560809,126.986397
명일역,서울특별시 강동구 양재대로 1647 (명일동),starbucks,37.552580,127.143799
강동구청DT,서울특별시 강동구 성내로 32 (성내동),starbucks,37.529437,127.123835
강동암사DT,서울특별시 강동구 고덕로 43 (암사동),starbucks,37.555054,127.130065
굽은다리역,"서울특별시 강동구 양재대로 1568 (명일동, 원일타워)",starbucks,37.545403,127.143101
강동역,"서울특별시 강동구 천호대로 1089 (천호동, 강동 헤르셔)",starbucks,37.536047,127.133086
둔촌동,서울특별시 강동구 양재대로 1303 (성내동) 평원빌딩,starbucks,37.522724,127.133943
천호로데오,서울특별시 강동구 천호대로 1037 (천호동),starbucks,37.5378069,127.12730940000006
천호이마트,서울특별시 강동구 천호대로 1015-14 (천호동) 이마트별관,starbucks,37.538933,127.125214
길동역,서울특별시 강동구 양재대로 1487 (길동),starbucks,37.5387433,127.1399879
상일동,"서울특별시 강동구 상일로10길 36, 1~2층 (상일동)",starbucks,37.5507989598659,127.174104292142
천호역,"서울특별시 강동구 천호대로 1012, 태승빌딩 (성내동)",starbucks,37.53795191,127.1245793
명일이마트,서울특별시 강동구 동남로75길 5 (명일동) 명일이마트별관주차장,starbucks,37.553991,127.155984
상일동역,"서울특별시 강동구 고덕로 399 (고덕동, 고덕센트럴푸르지오)",starbucks,37.55754181615496,127.17072672474717
천호사거리,서울특별시 강동구 올림픽로 651 (천호동),starbucks,37.539702,127.123542
강일역,"서울특별시 강동구 고덕로 429 (강일동), 1층",starbucks,37.55747468801038,127.17351070838722
올림픽공원북2문,서울특별시 강동구 강동대로 199 (성내동),starbucks,37.5241832,127.1286775
천호대로길동,서울특별시 강동구 천호대로 1131 거산 유팰리스,starbucks,37.534651,127.137210
신도림,서울특별시 구로구 경인로 610 (신도림동),starbucks,37.505517,126.883953
구로디지털타워,서울특별시 구로구 디지털로32길 30 (구로동),starbucks,37.483432,126.89648
오류동역,서울특별시 구로구 경인로 216 (오류동),starbucks,37.4962155,126.8448614
구로디지털로,"서울특별시 구로구 디지털로33길 11, 에이스테크노8차 1층 (구로동)",starbucks,37.485911,126.895587
구로에이스,"서울특별시 구로구 디지털로 285, 에이스트윈타워1차 103호 (구로동)",starbucks,37.48448329,126.8944957
구로하이엔드,"서울특별시 구로구 디지털로26길 5, 에이스하이엔드타워1차 103호 (구로동)",starbucks,37.481618,126.893136
현대디큐브2F,서울특별시 구로구 경인로 662 (신도림동),starbucks,37.508636,126.889225
구로호텔,"서울특별시 구로구 디지털로32길 72, 구로호텔 1층 (구로동)",starbucks,37.4831293,126.89885909999998
현대디큐브B2,서울특별시 구로구 경인로 662 (신도림동),starbucks,37.508828,126.889488
구로고척,서울특별시 구로구 경인로 387 (고척동),starbucks,37.49706,126.86315
구로NC,서울특별시 구로구 구로중앙로 152 (구로동) 구로NC,starbucks,37.501219,126.882798
구로오류DT,서울특별시 구로구 서해안로 2233 (오류동),starbucks,37.4881292318832,126.834491889841
구로구청,"서울특별시 구로구 가마산로 232 (구로동, 스페스큐브), B101호",starbucks,37.49395067031256,126.88676120707717
고척아이파크,"서울특별시 구로구 경인로43길 49 (고척동, 고척아이파크), 1층 D-101호",starbucks,37.49930562934076,126.8582208923581
답십리역,서울특별시 동대문구 천호대로 263 (답십리동),starbucks,37.568466,127.051106
경희대삼거리,서울특별시 동대문구 회기로 141 (회기동),starbucks,37.591531,127.052017
외대정문,서울특별시 동대문구 이문로 93 (이문동),starbucks,37.5953464,127.0590302
신설동역,서울특별시 동대문구 왕산로 19 (신설동),starbucks,37.5767228,127.0255446
회기역사거리,서울특별시 동대문구 이문로 37 (회기동),starbucks,37.590784,127.056098
외대,서울특별시 동대문구 휘경로 12-1 (이문동),starbucks,37.59575188,127.0614002
장한평역,서울특별시 동대문구 장한로 10 (장안동),starbucks,37.562337,127.065511
경희대,서울특별시 동대문구 경희대로 16-1 (회기동),starbucks,37.5928812,127.05280849999997
청량리역롯데캐슬스카이,"서울특별시 동대문구 답십리로 27 (전농동, 청량리역 롯데캐슬 SKY-L65)",starbucks,37.579201572803626,127.04541391086886
경동1960,서울특별시 동대문구 고산자로36길 3 (제기동),starbucks,37.5796141021494,127.038684963773
청량리역사,서울특별시 동대문구 왕산로 214 (전농동),starbucks,37.57945,127.04785
답십리초교사거리 ,서울특별시 동대문구 전농로 38 (답십리동),starbucks,37.5682540295405,127.057240883237
장안사거리,서울특별시 동대문구 답십리로 267 (장안동),starbucks,37.5727209002351,127.070092668638
서울숲역,서울특별시 성동구 왕십리로 50 (성수동1가) 1층,starbucks,37.542075,127.044961
금호역,서울특별시 성동구 동호로 99 (금호동4가),starbucks,37.5479939,127.0153343
뚝섬역,서울특별시 성동구 아차산로 42 (성수동1가),starbucks,37.546432,127.049042
황학사거리,"서울특별시 성동구 왕십리로 410 (하왕십리동, 센트라스)",starbucks,37.567644,127.023697
성수역,서울특별시 성동구 성수이로 94 (성수동2가),starbucks,37.543193,127.056943
상왕십리역,서울특별시 성동구 왕십리로 382 (하왕십리동),starbucks,37.565169,127.027907
왕십리역,서울특별시 성동구 왕십리로 326 (도선동),starbucks,37.5627541,127.0339072
한양대,"서울특별시 성동구 왕십리로 225 (행당동) 1,2층",starbucks,37.55726984,127.0421649
엔터식스,서울특별시 성동구 왕십리광장로 17 (행당동),starbucks,37.56175811,127.0383328
신금호역,서울특별시 성동구 금호로 158-1 (금호동1가) 1~5층 전체,starbucks,37.5549672,127.0201447
왕십리역9번출구,서울특별시 성동구 고산자로 234 (행당동),starbucks,37.5605427226347,127.035267332652
성수,서울특별시 성동구 아차산로 104 (성수동2가),starbucks,37.5444620830457,127.055413311106
옥수,서울특별시 성동구 독서당로 202 (옥수동),starbucks,37.5430298,127.0133661
성수낙낙,서울특별시 성동구 광나루로8길 31 (성수동2가) 성수낙낙 1층 101~107호,starbucks,37.547326,127.066367
효창공원앞역,"서울특별시 용산구 백범로 313 (효창동, 용산 롯데캐슬 센터포레)",starbucks,37.539305,126.963060
서울역서부,서울특별시 용산구 만리재로 202 (서계동),starbucks,37.555165,126.968446
이태원역,서울특별시 용산구 이태원로 188 (이태원동),starbucks,37.534273,126.994789
한강진역R,서울특별시 용산구 이태원로 252 (한남동),starbucks,37.537131,127.00098
용산역써밋R,"서울특별시 용산구 한강대로 69 (한강로2가, 용산푸르지오써밋)",starbucks,37.527586,126.965401
이촌,서울특별시 용산구 이촌로 276 (이촌동),starbucks,37.518605,126.977271
신용산역,"서울특별시 용산구 한강대로 95 (한강로2가, 래미안용산)",starbucks,37.528702,126.966757
용산파크타워,"서울특별시 용산구 서빙고로 67 (용산동5가, 파크타워)",starbucks,37.523818,126.970389
남영동,서울특별시 용산구 한강대로 275 (갈월동),starbucks,37.542831,126.972242
한남동R,서울특별시 용산구 독서당로 94 (한남동),starbucks,37.53485,127.010919
서울타워,서울특별시 용산구 남산공원길 105 (용산동2가) YTN서울타워 1층,starbucks,37.551102,126.988317
서울역동자동,서울특별시 용산구 한강대로 372 (동자동),starbucks,37.551752,126.972694
순천향입구,서울특별시 용산구 대사관로 67 (한남동),starbucks,37.533394,127.00563
숙대,서울특별시 용산구 청파로47길 57 (청파동3가),starbucks,37.54460479,126.9672252
동빙고,서울특별시 용산구 장문로 12 (동빙고동),starbucks,37.5289857,126.991782
숙대입구역,서울특별시 용산구 한강대로 291 (갈월동),starbucks,37.544118,126.971891
용산아이파크몰,서울특별시 용산구 한강대로23길 55,starbucks,37.5288539,126.96404469999993
동부이촌동,서울특별시 용산구 이촌로 198 (이촌동),starbucks,37.52111,126.96905
숙명여대정문,서울특별시 용산구 청파로47길 100 (청파동2가) 프라임관B1F(로비층),starbucks,37.54474797,126.96484196
용산해링턴스퀘어,서울특별시 용산구 서빙고로 17 (한강로3가),starbucks,37.5258562,126.9676442
경리단길,서울특별시 용산구 회나무로 3 (이태원동),starbucks,37.53854,126.98737
서울역사,서울특별시 용산구 한강대로 405 (동자동) 신-101호,starbucks,37.55415699928705,126.97179361292846
용산리첸시아,"서울특별시 용산구 백범로 341 (원효로1가, 리첸시아 용산)",starbucks,37.538571,126.967409
용산전자랜드,서울특별시 용산구 청파로 74 (한강로3가),starbucks,37.53286105987034,126.96100091132484
상봉,"서울특별시 중랑구 상봉로 131 (상봉동, 상봉 듀오트리스 주상복합)",starbucks,37.597842,127.092509
중랑역,서울특별시 중랑구 망우로30길 3 (상봉동),starbucks,37.5930326,127.07473579999998
중랑구청,서울특별시 중랑구 신내로 72,starbucks,37.60538908,127.0957558
사가정역,서울특별시 중랑구 면목로 310,starbucks,37.579594,127.087966
상봉역,서울특별시 중랑구 망우로 307 (상봉동),starbucks,37.59689,127.08647
묵동,"서울특별시 중랑구 동일로 952 (묵동, 로프트원 태릉입구역) 1층",starbucks,37.615368,127.076633
양원역,서울특별시 중랑구 양원역로10길 3 (망우동),starbucks,37.6066536267232,127.106359790053
중화역,서울특별시 중랑구 봉화산로 35 1층,starbucks,37.60170912407773,127.07841136432036
강남YMCA점,서울 강남구 논현동,ediya,37.5126451506882,127.030154778539
강남구청역아이티웨딩점,"서울 강남구 학동로 338 (논현동, 강남파라곤)",ediya,37.5165402749359,127.04016223452
강남논현학동점,서울 강남구 논현로131길 28 (논현동),ediya,37.5140808650413,127.028107144711
강남대치점,"서울 강남구 역삼로 415 (대치동, 성진빌딩)",ediya,37.5012890411822,127.052395659668
강남도산점,서울 강남구 도산대로37길 20 (신사동),ediya,37.5222784215718,127.031487626912
강남세곡점,"서울 강남구 헌릉로569길 9 (세곡동, 강남지웰파인즈)",ediya,37.4667896057922,127.100777255781
강남율현점,"서울 강남구 밤고개로21길 8 (율현동, 세곡프라자)",ediya,37.4735487656314,127.107863694133
강남자곡점,"서울 강남구 자곡로 180 (자곡동, 강남유탑유블레스)",ediya,37.4737022348839,127.103398442206
개포동역점,"서울 강남구 개포로82길 11 (개포동, 삼우빌딩)",ediya,37.4885582921416,127.067443820505
건설회관점,서울 강남구 언주로 711 (논현동),ediya,37.5170777485054,127.033430008152
대청역점,"서울 강남구 개포로109길 34 (개포동, 대청프라자)",ediya,37.4942045850869,127.077648338611
대치역점,"서울 강남구 남부순환로 2937 (대치동, 까치빌딩)",ediya,37.4940924880388,127.061617564506
도곡2동점,"서울 강남구 논현로 142 (도곡동, 동현빌딩)",ediya,37.4824190644276,127.043027525405
도산사거리점,서울 강남구 논현동,ediya,37.5126451506882,127.030154778539
삼성대치점,"서울 강남구 삼성로64길 32 (대치동, 주성빌딩)",ediya,37.5003851860407,127.063023470075
삼성동점,서울 강남구 테헤란로88길 10 (대치동),ediya,37.5068438170208,127.059463197882
삼성중앙역점,"서울 강남구 삼성로 608 (삼성동, 우창빌딩)",ediya,37.5138886492475,127.053299510545
삼성한전점,서울 강남구 테헤란로107길 11 (삼성동),ediya,37.5104297492841,127.065059101392
선릉역점,"서울 강남구 테헤란로 332 (역삼동, HJ타워)",ediya,37.503774633134,127.048192060882
선릉점,"서울 강남구 선릉로86길 15 (대치동, 현대선릉 GOLD TOWER)",ediya,37.5035255678446,127.05083685187
선정릉역점,서울 강남구 봉은사로 326 (역삼동),ediya,37.5096482466672,127.042668888604
수서역점,"서울 강남구 광평로 280 (수서동, 로즈데일오피스텔)",ediya,37.4873191631489,127.103108072457
신사역점,서울 강남구 압구정로2길 62 (신사동),ediya,37.5177732246531,127.021441559996
신사점,서울 강남구 도산대로 118 (논현동),ediya,37.5166049160019,127.021810432013
압구정로데오역점,서울 강남구 선릉로161길 20 (신사동),ediya,37.5275307906026,127.038831142048
압구정점,서울 강남구 신사동,ediya,37.5239850298543,127.02277448907
압구정현대점,"서울 강남구 압구정로 214 (신사동, 현대종합상가빌딩)",ediya,37.5279935871042,127.030734534472
역삼더블루점,"서울 강남구 논현로63길 16 (역삼동, 역삼종합시장 더블루)",ediya,37.4928940114283,127.039114558338
역삼역점,서울 강남구 테헤란로25길 17 (역삼동),ediya,37.5017984360259,127.035240588466
역삼월드점,"서울 강남구 역삼로52길 14 (역삼동, 도곡프라자)",ediya,37.4985541072519,127.047989898024
역삼점,서울 강남구 논현로72길 13 (역삼동),ediya,37.4958440607421,127.040532805045
역삼중앙점,서울 강남구 언주로81길 8 (역삼동),ediya,37.5003535799397,127.042879601261
역삼초교점,서울 강남구 강남대로 314 (역삼동),ediya,37.4913189579708,127.031257745326
역삼충현점,서울 강남구 논현로98길 7 (역삼동),ediya,37.5037648162983,127.036345775147
역삼플래티넘점,"서울 강남구 테헤란로4길 46 (역삼동, 쌍용플래티넘밸류)",ediya,37.4955481444177,127.03006467392
을지병원사거리점,서울 강남구 도산대로30길 7 (논현동),ediya,37.5193954737507,127.029425389395
이디야커피랩,"서울 강남구 논현로 636 (논현동, 이디야빌딩)",ediya,37.51047621899,127.032979505594
일원동점,서울 강남구 양재대로27길 20 (일원동),ediya,37.4904036219711,127.081620803689
청담사거리점,서울 강남구 도산대로 521 (청담동),ediya,37.5248722572746,127.050379366946
청담역점,"서울 강남구 삼성로 721 (청담동, 룩희 819)",ediya,37.5200643058897,127.049146860404
포이사거리점,서울 강남구 개포로 218 (개포동),ediya,37.4784962431058,127.046611902693
학동역점,"서울 강남구 학동로 219 (논현동, 국제빌딩)",ediya,37.5149944434401,127.033126051166
학동제마점,서울 강남구 학동로34길 22 (논현동),ediya,37.5131174134101,127.033652198273
한티역점,서울 강남구 도곡로69길 8 (대치동),ediya,37.4979490135961,127.056118735013
강동고덕교차로점,"서울 강동구 고덕로 421 (강일동, 대한연세요양원)",ediya,37.5574052401914,127.172575598882
강동구청점,"서울 강동구 성내로6길 20 (성내동, 청일 베르네)",ediya,37.5289268276291,127.122365834821
강동성내점,서울 강동구 풍성로 162 (성내동),ediya,37.5305040538801,127.129853009462
강동신명초교점,"서울 강동구 명일로 260 (길동, 길동신동아아파트)",ediya,37.5411339937801,127.147402025244
강동역점,"서울 강동구 천호대로 1065 (천호동, 강동상떼빌)",ediya,37.5370371637538,127.130464913259
강일점,"서울 강동구 아리수로93길 19 (강일동, 임페리얼타워)",ediya,37.5653806615841,127.174117962328
고덕강일2지구점,서울 강동구 아리수로93나길 76 (강일동),ediya,37.5724724003773,127.175933655982
고덕그라시움후문점,서울 강동구 동남로82길 121 (고덕동),ediya,37.5603957646344,127.163698036337
고덕래미안힐스점,"서울 강동구 아리수로50길 50 (고덕동, 래미안힐스테이트고덕)",ediya,37.5576891371776,127.148600236458
고덕점,"서울 강동구 동남로75길 19 (명일동, 명일빌딩)",ediya,37.5541302080444,127.15517770003
굽은다리역점,서울 강동구 양재대로 1543 (천호동),ediya,37.5435065290527,127.141864467088
길동사거리점,서울 강동구 천호대로 1132 (성내동),ediya,37.5340717110259,127.136981871571
길동역점,서울 강동구 양재대로 1471 (길동),ediya,37.5373607499164,127.139268457231
길동중앙점,서울 강동구 명일로 200 (길동),ediya,37.5365378431537,127.145928885855
둔촌점,서울 강동구 양재대로 1377 (성내동),ediya,37.5292227276953,127.136262071919
명일역점,"서울 강동구 구천면로 424 (명일동, 명일메가타운)",ediya,37.5503498644145,127.145579195087
명일중앙점,"서울 강동구 상암로 210 (명일동, 명일현대종합상가)",ediya,37.5462992589271,127.145789262651
보훈병원점,"서울 강동구 명일로 110 (둔촌동, 둔촌동암펠로스타워)",ediya,37.5288078485418,127.143165938025
상일리엔파크점,"서울 강동구 상일로 74 (상일동, 고덕리엔파크3단지아파트)",ediya,37.5513683747695,127.174785524346
암사3동점,"서울 강동구 고덕로 140 (암사동, 프라이어팰리스)",ediya,37.5544585121936,127.140740945473
암사역점,"서울 강동구 올림픽로 782 (암사동, 501타워)",ediya,37.5508657313861,127.128126213246
암사중앙점,"서울 강동구 암사길 50 (암사동, 제이빌더스)",ediya,37.5513635720856,127.134728442286
올림픽북문점,서울 강동구 성안로 7 (성내동),ediya,37.5245413697762,127.12890032958
천호1동점,"서울 강동구 구천면로34길 43 (천호동, 헤리티지)",ediya,37.5425666122483,127.13359431159
천호로데오점,서울 강동구 천호대로 1027 (천호동),ediya,37.5381084632581,127.126395521678
천호중앙점,"서울 강동구 올림픽로 660 (천호동, 천호엘크루주상복합)",ediya,37.540169637196,127.124570380688
천호초교사거리점,"서울 강동구 구천면로 304 (천호동, 일주빌딩)",ediya,37.5467270340876,127.134809493652
천호현대점,서울 강동구 올림픽로 665 (천호동),ediya,37.5409246865992,127.123873832581
4.19사거리점,서울 강북구 삼양로 501 (수유동),ediya,37.647893174147,127.014231720461
가오리역점,서울 강북구 삼각산로 108 (수유동),ediya,37.6406008108564,127.016163948133
강북경찰서점,서울 강북구 오패산로 403 (번동),ediya,37.6368791129402,127.026998503592
미아꿈의숲해링턴점,"서울 강북구 오현로 45 (미아동, 꿈의숲 해링턴 플레이스)",ediya,37.6169370292441,127.034610388171
미아삼거리역점,서울 강북구 도봉로10길 28 (미아동),ediya,37.6139008845134,127.031024695473
미아삼거리점,"서울 강북구 도봉로 45 (미아동, 숭인시장)",ediya,37.6131435556689,127.02945322795
미아송천점,서울 강북구 삼양로 118 (미아동),ediya,37.614427120808,127.022406643431
미아중앙점,서울 강북구 도봉로 128 (미아동),ediya,37.6204657886777,127.028755869816
번동점,"서울 강북구 오현로 194 (번동, 덕수빌딩)",ediya,37.6288359683906,127.03987378053
북한산점,서울 강북구 4.19로 85 (수유동),ediya,37.6447601874917,127.005613427587
삼각산점,서울 강북구 솔샘로40길 3 (미아동),ediya,37.6199160790664,127.016024676372
삼양사거리점,"서울 강북구 솔샘로 254 (미아동, 삼양아케이트)",ediya,37.6193297017502,127.020743950051
삼양시장점,"서울 강북구 삼양로 234 (미아동, 대건빌딩)",ediya,37.6243207914361,127.018710982852
수유1동점,서울 강북구 삼양로 293 (수유동),ediya,37.6297231733686,127.017700580857
수유사거리점,"서울 강북구 덕릉로 82 (수유동, 제네스타워)",ediya,37.6344266074982,127.022843274109
수유역점,서울 강북구 도봉로 355 (수유동),ediya,37.6393467065696,127.026708100926
우이역도선사점,서울 강북구 삼양로173길 21 (우이동),ediya,37.6625815694576,127.011370528324
한신대점,서울 강북구 덕릉로 31 (수유동),ediya,37.6343160541282,127.016985885932
가양역점,서울 강서구 양천로 500 (등촌동),ediya,37.5605371784027,126.855531211014
강서nc점,서울 강서구 강서로54길 11 (등촌동),ediya,37.5594168739297,126.839349532387
강서가양동점,"서울 강서구 강서로 511 (가양동, 한림타운)",ediya,37.5710165391584,126.841469246972
강서교차로점,"서울 강서구 공항대로 437 (등촌동, 주신기업(주))",ediya,37.5549540812369,126.855914666721
강서구청점,"서울 강서구 화곡로 292 (화곡동, 서광프리메라)",ediya,37.5501868292157,126.848722796198
강서한강자이점,서울 강서구 양천로 401 (가양동),ediya,37.5657034766638,126.847638315393
개화산역점,"서울 강서구 양천로 28 (방화동, 벽산에어트리움)",ediya,37.5723030060453,126.806994113323
개화산점,"서울 강서구 양천로 28 (방화동, 벽산에어트리움)",ediya,37.5723030060453,126.806994113323
곰달래사거리점,서울 강서구 곰달래로 52 (화곡동),ediya,37.5299403880104,126.838583156306
공항시장역점,"서울 강서구 방화동로 37 (방화동, 메디스타워)",ediya,37.5641822785808,126.810682079138
까치산로점,서울 강서구 까치산로 182 (화곡동),ediya,37.553313221654,126.853891289928
까치산역점,서울 강서구 강서로17길 6 (화곡동),ediya,37.5334249471385,126.845201122636
내발산점,"서울 강서구 강서로 304 (내발산동, 영종빌딩)",ediya,37.5527272314626,126.836712906031
등촌3동점,서울 강서구 공항대로41길 34 (등촌동),ediya,37.5592796685251,126.84571196058
등촌동점,"서울 강서구 공항대로61길 20 (염창동, 우리프리머스)",ediya,37.5518113314282,126.865793360516
등촌역점,서울 강서구 등촌로 217 (등촌동),ediya,37.5491824406556,126.863315147109
등촌중앙점,"서울 강서구 등촌로 67 (등촌동, 컴스웨이빌딩)",ediya,37.5360859259398,126.863121025851
렘넌트문화센터점,"서울 강서구 화곡로63길 65 (등촌동, 예원교회)",ediya,37.5579738421304,126.849189076142
마곡대방디엠씨티점,"서울 강서구 양천로 344 (마곡동, 마곡센트럴대방디엠시티오피스텔)",ediya,37.5682660192783,126.840359563104
마곡수명산점,"서울 강서구 수명로 68-27 (내발산동, 웨스트엔드문화센터)",ediya,37.552676073225,126.826675489517
마곡엠밸리점,"서울 강서구 마곡서로 101 (마곡동, 동익드미라벨복합빌딩)",ediya,37.5626706927393,126.823605646871
마곡역점,"서울 강서구 공항대로 195 (마곡동, 힐스테이트에코동익)",ediya,37.5598879504334,126.829169795133
마곡중앙점,"서울 강서구 마곡중앙6로 66 (마곡동, 퀸즈파크텐)",ediya,37.559915259194,126.8343608462
마곡퀸즈파크9점,"서울 강서구 공항대로 247 (마곡동, 퀸즈파크나인)",ediya,37.5593135416408,126.83523920295
마곡파인스퀘어점,"서울 강서구 마곡중앙4로 22 (마곡동, 파인스퀘어)",ediya,37.5582829549403,126.829009917866
마곡헤리움점,"서울 강서구 마곡중앙5로1길 25 (마곡동, 마곡헤리움2차)",ediya,37.5692420716795,126.826138036672
발산역점,서울 강서구 공항대로 280 (내발산동),ediya,37.5580304294577,126.838431360202
방화동로점,서울 강서구 방화동로 95 (방화동),ediya,37.5690161610357,126.812631152778
방화사거리점,"서울 강서구 양천로 72 (방화동, 해성빌딩)",ediya,37.5732116324409,126.811777075121
방화역점,"서울 강서구 금낭화로 146 (방화동, 오피앙)",ediya,37.5781901549032,126.813305186149
송정역점,서울 강서구 공항대로 24 (공항동),ediya,37.5611712399241,126.809951413051
신방화역점,"서울 강서구 마곡중앙5로 81 (마곡동, 에스비타운)",ediya,37.5671170824829,126.818597219555
신방화중앙점,"서울 강서구 방화대로34길 92 (방화동, 불해빌딩)",ediya,37.5708840128695,126.821409394955
양천향교역점,서울 강서구 강서로 462 (등촌동),ediya,37.5666120273171,126.84140274432
염창동점,서울 강서구 양천로 689 (염창동),ediya,37.5505597737771,126.872893822047
염창블루나인점,서울 강서구 양천로 583 (염창동),ediya,37.5571161918617,126.864347419732
우장산동점,서울 강서구 우현로 15 (화곡동),ediya,37.5471679730925,126.843625687446
우장산역점,서울 강서구 강서로45길 5 (화곡동),ediya,37.5478575498901,126.835824572069
화곡남부시장점,서울 강서구 등촌로5길 80 (화곡동),ediya,37.5330706883775,126.858951804044
화곡로점,서울 강서구 화곡로 133 (화곡동),ediya,37.5408336595688,126.83649036711
화곡본동시장점,서울 강서구 까치산로4길 11 (화곡동),ediya,37.5422274684945,126.844262083668
화곡사거리점,서울 강서구 곰달래로 135 (화곡동),ediya,37.5307647642885,126.847921657041
화곡중앙시장점,서울 강서구 가로공원로76길 61 (화곡동),ediya,37.5344254054077,126.838267216211
화곡중앙점,서울 강서구 까치산로 79 (화곡동),ediya,37.5457692637848,126.847413765001
관악우성점,서울 관악구 관악로 232 (봉천동),ediya,37.4849644283346,126.95603357684
관악하나로마트점,"서울 관악구 남부순환로 1369 (신림동, 관악농협농산물백화점)",ediya,37.4801290693885,126.902896907397
낙성대역점,서울 관악구 남부순환로 1915 (봉천동),ediya,37.4779156285198,126.962205494624
난곡사거리점,서울 관악구 남부순환로 1444 (신림동),ediya,37.4809279906563,126.911256043771
난향동점,서울 관악구 난곡로 60 (신림동),ediya,37.4608681432511,126.919395468118
남현홈플러스점,"서울 관악구 과천대로 909 (남현동, 남현프라자)",ediya,37.4714704021418,126.982466468514
녹두거리점,서울 관악구 신림로 91 (신림동),ediya,37.4703086452623,126.939065988966
당곡사거리점,서울 관악구 봉천로 245 (봉천동),ediya,37.489287127719,126.929036226245
보라매중앙점,"서울 관악구 보라매로 62 (봉천동, 보라매삼성아파트)",ediya,37.4948015028766,126.927602560192
봉일시장점,서울 관악구 은천로 23 (봉천동),ediya,37.4864072865821,126.937927086846
봉천역점,서울 관악구 남부순환로 1725 (봉천동),ediya,37.4826845342451,126.941891346509
봉천중앙점,서울 관악구 남부순환로 1874 (봉천동),ediya,37.4790080338398,126.957747294745
봉천현대시장점,서울 관악구 양녕로 39-1 (봉천동),ediya,37.4857087156598,126.946749008784
서울대중앙점,서울 관악구 남부순환로216길 2 (봉천동),ediya,37.4813772073442,126.948995789049
신대방역점,서울 관악구 난곡로 368 (신림동),ediya,37.4868566719231,126.913752282818
신림난곡점,서울 관악구 난곡로 197 (신림동),ediya,37.4725400701048,126.918942273894
신림남부초교점,서울 관악구 남부순환로 1541-1 (신림동),ediya,37.4834018259286,126.921883674693
신림대학동점,서울 관악구 호암로26길 17 (신림동),ediya,37.4707490184504,126.934607229207
신림문화교점,"서울 관악구 신림로46길 1 (신림동, 서원동성당)",ediya,37.4784569907315,126.933022235665
신림문화교점,서울 관악구 신림로 262-1 (신림동),ediya,37.4785607880501,126.932706939315
신림미성점,서울 관악구 난곡로 250 (신림동),ediya,37.4765402893322,126.915984298817
신림신원점,서울 관악구 신원로 16 (신림동),ediya,37.4807396753723,126.927931907461
신림신화교점,서울 관악구 신림로 199 (신림동),ediya,37.4755283029632,126.936194282286
신림역점,서울 관악구 신림로 312 (신림동),ediya,37.4821884771875,126.93014846789
신림중앙점,서울 관악구 관천로 52 (신림동),ediya,37.4843385815599,126.92662660893
신림패션문화점,서울 관악구 봉천로6길 24 (신림동),ediya,37.488621134755,126.925430749958
인헌점,서울 관악구 인헌길 17 (봉천동),ediya,37.4747218312,126.967061195914
청룡중앙점,"서울 관악구 쑥고개로 80 (봉천동, 제이빌딩)",ediya,37.4792117658952,126.945267468435
건대로데오점,서울 광진구 아차산로30길 8 (자양동),ediya,37.5404002389743,127.067613370282
건대스타시티2호점,"서울 광진구 능동로 92 (자양동, 스타시티몰) 지하 2층 201호",ediya,37.5389997704376,127.071214413664
건대스타시티점,"서울 광진구 아차산로 272 (자양동, 더샵스타시티)",ediya,37.5385582736952,127.072996184863
건대역점,"서울 광진구 아차산로 229 (화양동, 한림타워)",ediya,37.540809126931,127.068990676571
광진구청점,서울 광진구 자양로 136 (구의동),ediya,37.5397914286378,127.08340274329
구의동점,서울 광진구 아차산로 481 (구의동),ediya,37.5409712126509,127.09495568783
구의사거리점,서울 광진구 광나루로 508 (구의동),ediya,37.5447981575587,127.085963863525
구의역점,서울 광진구 구의로 4 (구의동),ediya,37.538350750252,127.089289559874
구의자양로점,서울 광진구 자양로 251 (구의동),ediya,37.5489991036635,127.089309502858
군자역점,"서울 광진구 능동로 290 (능동, 삼일빌딩)",ediya,37.5555832993412,127.078979184085
동서울터미널점,서울 광진구 구의동,ediya,37.5502741239803,127.093135225891
뚝섬유원지역점,서울 광진구 능동로 21 (자양동),ediya,37.5335511358857,127.067243553844
세종대후문점,서울 광진구 군자로 109 (군자동),ediya,37.5528721561007,127.071997503193
아차산역점,서울 광진구 천호대로 663 (구의동),ediya,37.5518131074078,127.090249098008
어린이대공원역점,서울 광진구 광나루로 380 (화양동),ediya,37.5476159822886,127.071882907152
자양동점,서울 광진구 자양로 46 (자양동),ediya,37.5322036162944,127.085968300289
자양우성점,"서울 광진구 자양번영로 34 (자양동, 제이원하이텔)",ediya,37.5327019732956,127.075820421522
중곡대원점,서울 광진구 용마산로 111 (중곡동),ediya,37.5635945424938,127.086643404936
중곡신성점,"서울 광진구 용마산로 37 (중곡동, 이안빌딩)",ediya,37.557021695282,127.087723525693
중곡역점,서울 광진구 능동로 407 (중곡동),ediya,37.5654345455536,127.083787528037
중곡중앙점,서울 광진구 능동로 330 (중곡동),ediya,37.5589451718863,127.080737680112
개봉북부점,서울 구로구 경인로40길 12 (개봉동),ediya,37.4962642022543,126.859131313522
개봉역점,서울 구로구 남부순환로97길 11 (개봉동),ediya,37.4942567601283,126.858377329092
개봉중앙점,서울 구로구 개봉로3길 26 (개봉동),ediya,37.4864507125929,126.854892238227
개봉현대점,서울 구로구 개봉로 69 (개봉동),ediya,37.4919033153723,126.85561013455
고대구로병원점,서울 구로구 구로동로 157 (구로동),ediya,37.4925738737687,126.883367203184
고척사거리점,"서울 구로구 고척로 228-6 (고척동, 종만빌딩)",ediya,37.5057871324878,126.85824878572
고척스카이돔점,"서울 구로구 경인로 397 (고척동, 골든타워빌딩)",ediya,37.4976995650402,126.863870881484
구로NC점,서울 구로구 구로동로 240 (구로동),ediya,37.5000087655668,126.88269870264
구로고척점,"서울 구로구 고척로 149 (고척동, 상암빌딩)",ediya,37.5031210514888,126.850139541298
구로구청점,"서울 구로구 가마산로25길 9 (구로동, 네오팰리스)",ediya,37.4966251468796,126.890315032666
구로궁동점,서울 구로구 오리로 1304 (궁동) 1층,ediya,37.4977748943867,126.82938331106
구로미성점,"서울 구로구 구로중앙로 228 (신도림동, 기임빌딩)",ediya,37.506167775395,126.876605252712
구로에이스점,서울 구로구 디지털로33길 11 (구로동),ediya,37.4857057781612,126.895512679788
구로역광장점,"서울 구로구 경인로 572 (구로동, 스타팰리스)",ediya,37.5033062723055,126.881083869229
구로이마트점,서울 구로구 디지털로32길 43 (구로동),ediya,37.4843992290119,126.897885833718
구로중앙점,서울 구로구 도림로 79 (구로동),ediya,37.4900866794025,126.892030098532
구로코레일점,"서울 구로구 구로중앙로 174 (구로동, 구로역)",ediya,37.5024345090279,126.881491595821
구로하버라인점,"서울 구로구 항동로3길 6 (항동, 가온 프라자)",ediya,37.4808405838883,126.824294637379
구일역점,"서울 구로구 구일로 110 (구로동, 해원리버파크)",ediya,37.4950748401596,126.87200783297
남구로역점,서울 구로구 디지털로27길 127 (가리봉동),ediya,37.4847108131575,126.887109265789
동양미래대학점,서울 구로구 경인로47길 14 (고척동),ediya,37.5002416748291,126.867046354752
메르디앙고척점,"서울 구로구 중앙로8길 11 (고척동, 고척 월드메르디앙)",ediya,37.5025283725553,126.863289184052
성공회대점,서울 구로구 연동로 312 (항동),ediya,37.4877304207618,126.824364209502
신도림메르디앙점,"서울 구로구 신도림로 65 (신도림동, 신도림월드메르디앙오피스텔)",ediya,37.509567497413,126.882036112811
신도림테크노마트점,서울 구로구 새말로 97 (구로동),ediya,37.5070438414784,126.890227293528
오류남부점,서울 구로구 오류로8길 65 (오류동),ediya,37.492655036705,126.843791876958
오류북부역점,서울 구로구 경인로20길 6 (오류동),ediya,37.4954038170325,126.843376566816
천왕이펜하우스점,서울 구로구 천왕로 36 (천왕동),ediya,37.4808996260751,126.83937984931
가산SKV1점,서울 금천구 가산디지털1로 171 (가산동),ediya,37.4807624025755,126.880678781517
가산그레이트점,서울 금천구 디지털로9길 32 (가산동),ediya,37.4795130993704,126.887511773421
가산대륭19차점,서울 금천구 가산디지털2로 70 (가산동),ediya,37.474706676466,126.882341560662
가산두산위브점,서울 금천구 가산로 111 (가산동),ediya,37.4756196441839,126.892926734418
가산리더스타워점,서울 금천구 벚꽃로 286 (가산동),ediya,37.4803938924495,126.884121140151
가산벽산점,서울 금천구 벚꽃로 244 (가산동),ediya,37.4767541059774,126.885806750581
가산오거리점,"서울 금천구 가산로 155 (가산동, 케이디에스빌딩)",ediya,37.4788595120999,126.890101661398
가산월드점,서울 금천구 가산디지털2로 123 (가산동),ediya,37.4787267314014,126.878710182672
가산하이엔드10차점,"서울 금천구 가산디지털1로 30 (가산동, 에이스하이엔드타워10)",ediya,37.46880404424,126.887495831099
금천롯데마트점,"서울 금천구 시흥대로 291 (독산동, 금천롯데캐슬골드파크3차)",ediya,37.4599560487863,126.896699156299
독산동쌈지공원점,서울 금천구 독산로 276 (독산동),ediya,37.4713521158292,126.903287759237
독산동점,"서울 금천구 독산로 218 (독산동, 창영빌딩)",ediya,37.4663579296014,126.902005888784
박미삼거리점,서울 금천구 시흥대로 150 (시흥동),ediya,37.4476250836631,126.90366423687
석수푸르지오점,"서울 금천구 삼성산길 11 (시흥동, 위너스타워)",ediya,37.4341080949544,126.904820619517
세광교회점,서울 금천구 독산로 124 (시흥동),ediya,37.4583414293405,126.905521424788
시흥동점,서울 금천구 시흥동,ediya,37.4476688042388,126.908452220723
시흥사거리점,서울 금천구 시흥대로63길 8 (시흥동),ediya,37.4550591389416,126.899099694946
시흥유통센터점,"서울 금천구 시흥대로 88 (시흥동, 오복빌딩)",ediya,37.4418896970511,126.903909572546
시흥중앙점,서울 금천구 금하로 748 (시흥동),ediya,37.4499582679558,126.912723967152
에이스가산포휴점,"서울 금천구 가산디지털1로 225 (가산동, 에이스 가산 포휴(지식산업센터))",ediya,37.4850725318802,126.878884450061
은행나무사거리점,서울 금천구 금하로 690 (시흥동),ediya,37.45180077956,126.906631793465
공릉역점,서울 노원구 동일로192길 5 (공릉동),ediya,37.626073855189,127.073390598155
공릉중앙점,서울 노원구 공릉로 146 (공릉동),ediya,37.6230811196078,127.079535585961
광운대점,서울 노원구 광운로 29 (월계동),ediya,37.6203235545121,127.058425843398
노원KT점,서울 노원구 노해로 494 (상계동),ediya,37.654537708996,127.063033065964
노원사거리점,서울 노원구 동일로 1393 (상계동),ediya,37.6529465229583,127.060550327814
노원역2호점,서울 노원구 상계로 64 (상계동),ediya,37.6557918268818,127.062277905261
노원중앙점,서울 노원구 노원로 452 (상계동),ediya,37.6570063312756,127.06692012654
당고개역점,서울 노원구 상계로 313 (상계동),ediya,37.670828618066,127.080373834493
마들역점,서울 노원구 동일로 1541 (상계동),ediya,37.6656742727167,127.05705028385
상계동점,서울 노원구 한글비석로52길 8 (상계동),ediya,37.6648832320965,127.066475087214
상계역점,서울 노원구 덕릉로 698 (중계동),ediya,37.6598359024215,127.075653393731
상계중앙점,서울 노원구 동일로 1650 (상계동),ediya,37.6754838685069,127.055546879508
서울과학기술대점,서울 노원구 공릉로 208 (공릉동),ediya,37.6282707117848,127.077780007937
서울여대점,서울 노원구 노원로 3 (공릉동),ediya,37.6219930235553,127.086663107619
석계역점,서울 노원구 석계로3길 3 (월계동),ediya,37.6155596617944,127.064332704491
세이브존노원점,"서울 노원구 한글비석로 57 (하계동, 세이브존)",ediya,37.6366235844053,127.068915344466
수락산역점,"서울 노원구 동일로 1689 (상계동, 하이베라스)",ediya,37.6791213093376,127.054950932229
원자력병원점,서울 노원구 공릉로46길 6 (공릉동),ediya,37.6269210605317,127.07963154886
월계이마트점,"서울 노원구 마들로3길 15 (월계동, 월계이마트)",ediya,37.6265093604229,127.061979778612
월계인덕점,서울 노원구 광운로22길 39 (월계동),ediya,37.6298501245091,127.058818019772
월계초교점,서울 노원구 월계동,ediya,37.6199191869585,127.062987742987
은행사거리점,서울 노원구 중계로 201 (중계동),ediya,37.650467997279,127.077782301891
중계롯데우성점,서울 노원구 노원로22길 70 (중계동),ediya,37.6473153742483,127.073989501408
중계본동점,서울 노원구 중계로14바길 2 (중계동),ediya,37.6498801772267,127.082582114688
중계브라운스톤점,"서울 노원구 동일로203가길 29 (중계동, 브라운스톤중계)",ediya,37.6398759609875,127.06428375943
중계점,서울 노원구 동일로204가길 34 (중계동),ediya,37.6407495352012,127.068172151465
중계중앙점,서울 노원구 덕릉로73길 18 (중계동),ediya,37.6521796648241,127.072435497752
태릉입구역점,"서울 노원구 공릉로 105 (공릉동, 성종빌딩)",ediya,37.6196132389484,127.077885277951
하계온천점,서울 노원구 노원로 257 (하계동),ediya,37.6402669300959,127.072761003099
하계을지점,서울 노원구 공릉로 326 (하계동),ediya,37.6358934332346,127.071179668515
덕성여대점,서울 도봉구 삼양로 542 (쌍문동),ediya,37.6516216780529,127.012971416471
도봉구청점,"서울 도봉구 도봉로150길 43 (방학동, ESA 아파트)",ediya,37.6662934478885,127.045847069683
도봉보건소사거리점,서울 도봉구 해등로 157 (쌍문동),ediya,37.6567853003321,127.038821522188
도봉산점,서울 도봉구 도봉산길 18 (도봉동),ediya,37.6875373485421,127.043744929408
도봉역점,서울 도봉구 도봉로 823 (도봉동),ediya,37.6779183959752,127.044759626556
도봉중앙점,서울 도봉구 도봉로181길 18 (도봉동),ediya,37.6841625718239,127.044903275309
방학사거리점,서울 도봉구 도봉로 677 (방학동),ediya,37.6649297808959,127.042318316334
방학역점,서울 도봉구 도봉로153길 15 (방학동),ediya,37.6697953566978,127.042538024724
방학점,서울 도봉구 방학로 171 (방학동),ediya,37.6621669447231,127.033248007437
방학중앙점,서울 도봉구 도당로13길 22 (방학동),ediya,37.6657654080945,127.035296884561
선덕고사거리점,"서울 도봉구 해등로 255 (쌍문동, 에벤에셀아파트)",ediya,37.6573748589473,127.028191786525
솔밭공원역점,"서울 도봉구 삼양로 594 (쌍문동, 주함해븐빌)",ediya,37.6560582306343,127.013556949839
신창점,서울 도봉구 덕릉로 235 (창동),ediya,37.6389379513295,127.038109547969
쌍문동점,서울 도봉구 노해로 162 (쌍문동),ediya,37.6488357345433,127.02730254917
쌍문역점,서울 도봉구 도봉로117길 4 (쌍문동),ediya,37.6494415919409,127.034706714207
쌍문중앙점,서울 도봉구 도봉로 519 (쌍문동),ediya,37.6519488121315,127.036320646169
창동대우점,서울 도봉구 덕릉로63가길 30 (창동),ediya,37.643486094098,127.038745142976
창동블루핀점,서울 도봉구 마들로 550 (창동),ediya,37.660460221857,127.049642163374
창동역점,서울 도봉구 마들로11길 65 (창동),ediya,37.6534171446527,127.049667391336
창동제일점,서울 도봉구 노해로70길 81 (창동),ediya,37.64883051469,127.052569730754
창동중앙점,서울 도봉구 노해로63길 78 (창동),ediya,37.652585903674,127.046332152249
창동하나로마트점,"서울 도봉구 마들로11길 20 (창동, 농협창동유통센타)",ediya,37.655110585923,127.050831341385
창동학원가점,서울 도봉구 해등로16길 61 (창동),ediya,37.6551356444229,127.043355569136
창동현대타운점,서울 도봉구 도봉로114길 22 (창동),ediya,37.6473734627308,127.035653272558
경희대점,서울 동대문구 경희대로 4 (회기동),ediya,37.5919079396189,127.052524117254
경희대캠퍼스점,"서울 동대문구 경희대로 26 (회기동, 경희대학교,경희초,중,고,여자중고등학교)",ediya,37.5939491407769,127.054890960564
답십리사거리점,서울 동대문구 답십리로 145 (답십리동),ediya,37.5730704793412,127.056115399363
답십리역점,서울 동대문구 천호대로 265 (답십리동),ediya,37.5683074569306,127.051368142068
답십리파크자이점,"서울 동대문구 한천로 55 (답십리동, 영진빌딩)",ediya,37.5669101962131,127.061880899304
동대문구청점,서울 동대문구 천호대로 153-1 (용두동),ediya,37.5736135434364,127.040640800113
동부병원사거리점,서울 동대문구 무학로 104 (용두동),ediya,37.5735114412289,127.030891222547
배봉초교사거리점,서울 동대문구 답십리로63길 131 (장안동),ediya,37.5785099656673,127.069336090359
서울시립대점,"서울 동대문구 서울시립대로 164 (전농동, 도석프라자)",ediya,37.5833009668774,127.054836496632
신설동역점,서울 동대문구 천호대로 11-3 (신설동),ediya,37.5750661619472,127.024947007152
용두동사거리점,서울 동대문구 왕산로 68 (용두동),ediya,37.5774850954352,127.030898977222
용두동점,서울 동대문구 고산자로 413-1 (용두동),ediya,37.5766607970206,127.037934015806
이문점,서울 동대문구 신이문로 19 (이문동),ediya,37.6031419104525,127.064253948955
장안동사거리점,서울 동대문구 답십리로 309 (장안동),ediya,37.5723544570231,127.074804796028
장안동점,서울 동대문구 장한로 43 (장안동),ediya,37.5651048537887,127.066709928024
장안중랑천점,서울 동대문구 장한로18길 32 (장안동),ediya,37.5675373374578,127.070775789879
장안중앙점,서울 동대문구 사가정로25길 42 (장안동),ediya,37.5806820979802,127.070975935766
장한평군자초교점,서울 동대문구 한천로2길 53 (장안동),ediya,37.5628367694104,127.061408380128
전농뉴타운점,서울 동대문구 답십리로 77 (전농동),ediya,37.5751171286371,127.049586247831
전농사거리점,서울 동대문구 사가정로 132 (전농동),ediya,37.5775954065724,127.059523151526
청량리점,서울 동대문구 왕산로 225 (청량리동),ediya,37.5821227010138,127.047209103701
촬영소사거리점,서울 동대문구 답십리로 264 (장안동),ediya,37.5722815601428,127.069508490646
회기역중앙점,서울 동대문구 회기로 194-1 (휘경동),ediya,37.5898382969461,127.05749416363
남성역점,서울 동작구 사당로17가길 13 (사당동),ediya,37.4838120946482,126.973425490717
노들점,서울 동작구 노량진로 200 (노량진동),ediya,37.5129025942598,126.947920845817
노량진CTS점,서울 동작구 노량진로 110 (노량진동),ediya,37.5131853341731,126.938038724901
노량진드림스퀘어점,"서울 동작구 노들로2길 7 (노량진동, 노량진 드림스퀘어 복합빌딩)",ediya,37.5141942939247,126.938586139882
노량진역사점,"서울 동작구 노량진로 지하 130 (노량진동, 9호선 노량진역)",ediya,37.5135735646312,126.940826454376
대림성모점,서울 동작구 시흥대로 658 (신대방동),ediya,37.4903749716012,126.908076731256
대방역점,"서울 동작구 노량진로 24 (대방동, 한신빌딩)",ediya,37.512908651342,126.928348559799
보라매공원점,서울 동작구 여의대방로 90 (신대방동),ediya,37.4968095727752,126.916661704502
보라매점,"서울 동작구 보라매로5가길 16 (신대방동, 보라매아카데미타워)",ediya,37.4912751024086,126.924094714271
사당역점,서울 동작구 동작대로7길 100 (사당동),ediya,37.4771585444473,126.977532880864
사당점,서울 동작구 동작대로 45 (사당동),ediya,37.4807394880433,126.981533135936
상도역점,서울 동작구 상도로 277 (상도1동),ediya,37.5028147684905,126.948341437745
상도중앙점,서울 동작구 만양로 17 (상도동),ediya,37.5062920350335,126.947156929982
상도파크엘점,"서울 동작구 양녕로 220 (상도동, 상도역 롯데캐슬 파크엘)",ediya,37.5007111108525,126.945556219571
숭실대점,서울 동작구 사당로 2 (상도동),ediya,37.4954756157966,126.954691116262
신대방삼거리점,서울 동작구 상도로 78 (대방동),ediya,37.4995449770673,126.929148090508
신상도초교점,서울 동작구 양녕로 183 (상도동),ediya,37.4977333331704,126.943170227346
이수중앙점,서울 동작구 사당로 285 (사당동),ediya,37.4846491148735,126.979182539226
중앙대점,서울 동작구 흑석로 79 (흑석동),ediya,37.5070293244615,126.958421417835
중앙대후문점,서울 동작구 흑석로 20 (상도동),ediya,37.5048307436215,126.9530308556
총신대입구역점,서울 동작구 동작대로 119-1 (사당동),ediya,37.4873642968468,126.981877501253
해군회관점,서울 동작구 여의대방로 194 (대방동),ediya,37.5042619165854,126.922263210314
흑석역점,서울 동작구 현충로 100-1 (흑석동),ediya,37.5076446931125,126.964738341052
공덕롯데캐슬점,"서울 마포구 마포대로 109 (공덕동, 롯데캐슬프레지던트)",ediya,37.5450686146253,126.950847479316
공덕점,서울 마포구 마포대로8길 15 (공덕동),ediya,37.5464419566645,126.954078419579
광흥창역점,"서울 마포구 창전로 45 (창전동, 서강한화오벨리스크)",ediya,37.5468832250067,126.931961062749
동교중앙점,서울 마포구 동교로27길 8 (동교동),ediya,37.5587808318798,126.92304276804
마포공덕역점,서울 마포구 새창로 6 (도화동),ediya,37.5420365203339,126.950509218628
마포구청점,서울 마포구 월드컵로 196 (성산동),ediya,37.5647995635391,126.902750212857
마포데시앙점,서울 마포구 독막로 320 (도화동),ediya,37.5429644969765,126.94787346379
마포성산시영점,서울 마포구 월드컵북로 210 (성산동),ediya,37.5692205219891,126.905804329554
마포점,서울 마포구 도화길 10 (도화동),ediya,37.5398078193128,126.947410163519
망리단길점,"서울 마포구 포은로 81-1 (망원동, S-빌딩)",ediya,37.5543135567568,126.905265725284
망원역점,서울 마포구 월드컵로 82-1 (서교동),ediya,37.5563763922796,126.910226957389
망원중앙점,서울 마포구 월드컵로 147 (망원동),ediya,37.5607966710773,126.905478560614
상수역점,서울 마포구 와우산로 41-1 (상수동),ediya,37.5482472144347,126.922823539536
상암DMC점,서울 마포구 월드컵북로 396 (상암동),ediya,37.5794283422818,126.889782954548
상암KBS점,서울 마포구 월드컵북로 375 (상암동),ediya,37.5775739803674,126.890723266484
상암우리기술점,서울 마포구 월드컵북로56길 9 (상암동),ediya,37.581384890718,126.887439627184
상암한샘점,서울 마포구 성암로13길 58 (상암동),ediya,37.5757184810434,126.897772246535
상암홈플러스점,서울 마포구 월드컵로 240 (성산동),ediya,37.5682884450841,126.897273034482
서강대점,서울 마포구 백범로 34 (신수동),ediya,37.5517050122954,126.937340858463
서교동점,서울 마포구 와우산로29길 70 (서교동),ediya,37.5563657191815,126.926596108697
성산점,서울 마포구 월드컵북로 137 (성산동),ediya,37.5648258493667,126.91166211022
성산중앙점,서울 마포구 성미산로 78 (성산동),ediya,37.560307376342,126.916651016723
신촌그랑자이점,"서울 마포구 대흥로 183 (대흥동, 신촌그랑자이 상가)",ediya,37.5557612664392,126.945627444506
신촌로터리점,서울 마포구 서강로 135 (노고산동),ediya,37.5545167136847,126.935422277226
신촌숲아이파크점,"서울 마포구 광성로 17 (신수동, 신촌숲아이파크)",ediya,37.5503208717883,126.935286024774
신촌하나로마트점,"서울 마포구 신촌로 66 (노고산동, 농협중앙회)",ediya,37.5560664973453,126.933116598433
애오개역점,서울 마포구 마포대로 208 (아현동),ediya,37.5525257335406,126.956851739447
오벨리스크점,"서울 마포구 마포대로 33 (도화동, 마포 한화 오벨리스크)",ediya,37.5399847863145,126.945447452979
한강공원로점,서울 마포구 망원로 21 (망원동),ediya,37.5563561457325,126.899417214073
합정LIG점,서울 마포구 양화로1길 21 (합정동),ediya,37.5495946668227,126.910456894059
합정동점,서울 마포구 양화로6길 90 (합정동),ediya,37.5482353406882,126.919083986241
합정역사거리점,서울 마포구 독막로2길 5 (합정동),ediya,37.5482582573584,126.914898987448
합정역점,서울 마포구 양화로11길 54 (서교동),ediya,37.552304226546,126.913831734308
합정홈플러스점,"서울 마포구 양화로 45 (서교동, 메세나폴리스)",ediya,37.5515008030203,126.91395024016
홍대청기와점,서울 마포구 월드컵북로 7 (서교동),ediya,37.5556111696904,126.920661686736
홍대학원가점,서울 마포구 와우산로 148 (창전동),ediya,37.5541249044242,126.929648387272
홍익대점,"서울 마포구 홍익로 10 (서교동, 서교푸르지오)",ediya,37.5537619785992,126.923693794834
가재울점,"서울 서대문구 수색로 100 (북가좌동, DMC래미안e편한세상)",ediya,37.5747334832097,126.907916083955
가재울중앙점,"서울 서대문구 가재울미래로 2 (남가좌동, DMC파크뷰자이)",ediya,37.5744019902031,126.917907814167
독립문통일로점,서울 서대문구 영천동,ediya,37.5703879302213,126.956682170377
동교동점,서울 서대문구 신촌로 5 (창천동),ediya,37.5586807985434,126.927711246319
명지대점,서울 서대문구 거북골로 35 (남가좌동),ediya,37.5793644567594,126.923916395533
명지전문대점,서울 서대문구 가좌로 140 (홍은동),ediya,37.5845714538091,126.92415926898
무악재역점,서울 서대문구 홍제동,ediya,37.5858458009441,126.948725215733
북가좌동점,서울 서대문구 증가로 257 (북가좌동),ediya,37.5834558892976,126.911536848426
서대문구청점,서울 서대문구 연희로 237 (연희동),ediya,37.5782396270709,126.93568571991
서대문점,서울 서대문구 냉천동,ediya,37.5667821636121,126.961963463309
신촌기차역점,서울 서대문구 신촌역로 35 (창천동),ediya,37.558976103967,126.941459567139
신촌역점,서울 서대문구 신촌로 87-20 (창천동),ediya,37.5565111834994,126.936458823099
아현역점,"서울 서대문구 신촌로37길 10 (북아현동, 아현 메디컬)",ediya,37.5576654886412,126.957137829236
연남동점,서울 서대문구 연희로 42 (연희동),ediya,37.5623685801819,126.927862179186
연대서문점,서울 서대문구 연희로10길 86 (연희동),ediya,37.5637079946735,126.933690297624
연세대점,서울 서대문구 연세로12길 10 (창천동),ediya,37.5588610117482,126.937523648298
연세의료원ABMR점,"서울 서대문구 연세로 50-1 (신촌동, 세브란스병원)",ediya,37.563674036531,126.941917689273
연희삼거리점,서울 서대문구 연희로 117 (연희동),ediya,37.5683140886647,126.931832116483
연희홍연길점,서울 서대문구 홍제천로 146-9 (연희동),ediya,37.5763814406771,126.930025142924
이화여대점,"서울 서대문구 이화여대길 26 (대현동, 이화빌딩)",ediya,37.5579888083125,126.946033716544
충정로3가점,"서울 서대문구 경기대로 26-26 (충정로3가, 더스타일하우스디센트럴)",ediya,37.5610226183,126.962192415514
홍은사거리점,"서울 서대문구 통일로 510 (홍은동, 북한산 더샵)",ediya,37.594570187466,126.941167410528
홍제역점,서울 서대문구 홍제동,ediya,37.5858458009441,126.948725215733
강남센트럴시티점,"서울 서초구 신반포로 176 (반포동, 센트럴시티)",ediya,37.5039351769908,127.002413006799
교대역점,"서울 서초구 서초대로56길 22 (서초동, 성운빌딩)",ediya,37.4934828298703,127.017110103589
교육개발원사거리점,"서울 서초구 바우뫼로 180 (양재동, 신송빌딩)",ediya,37.4782684272508,127.03982597562
국립국악원점,"서울 서초구 남부순환로 2364 (서초동, 국립국악원)",ediya,37.4777188083482,127.009818464555
국립중앙도서관디지털관점,"서울 서초구 반포대로 201 (반포동, 국립중앙도서관)",ediya,37.4974225959085,127.003227919207
국립중앙도서관본관점,"서울 서초구 반포대로 201 (반포동, 국립중앙도서관)",ediya,37.4974225959085,127.003227919207
남부터미널점,서울 서초구 서초동,ediya,37.4900861966504,127.01953478052
내방역점,"서울 서초구 서초대로 108 (방배동, 삼보빌딩)",ediya,37.4875261941992,126.994201615542
반포지하상가점,"서울 서초구 신반포로 지하 200 (잠원동, 강남터미널지하쇼핑몰)",ediya,37.5062203134857,127.005051680109
방배백석점,서울 서초구 방배로 42 (방배동),ediya,37.4787245624415,126.999783720903
방배역점,서울 서초구 방배로 87 (방배동),ediya,37.4821780901376,126.996908751208
방배중앙점,"서울 서초구 동광로 1 (방배동, 대양빌딩)",ediya,37.4910714836313,126.983025685547
서울고교점,서울 서초구 서초동,ediya,37.4900861966504,127.01953478052
서울고속버스터미널점,"서울 서초구 신반포로 194 (반포동, 강남고속버스터미널)",ediya,37.5064357442307,127.006834366246
서울교대점,서울 서초구 서초동,ediya,37.4900861966504,127.01953478052
서초법조타운점,"서울 서초구 서초중앙로24길 7 (서초동, 동천빌딩)",ediya,37.4947933346439,127.014489506397
서초역점,서울 서초구 서초동,ediya,37.4900861966504,127.01953478052
서초우면중앙점,"서울 서초구 양재대로2길 100-11 (우면동, 서초 리슈빌S)",ediya,37.4564477478347,127.016254660862
서초점,서울 서초구 서초대로48길 16 (서초동),ediya,37.4920545290117,127.011320881073
신논현역점,서울 서초구 강남대로79길 10 (반포동),ediya,37.5052986651935,127.023211362363
신사멀버리힐스점,서울 서초구 강남대로 589 (잠원동),ediya,37.5144406772564,127.019386390307
양재언남점,"서울 서초구 동산로 60 (양재동, 화성빌딩)",ediya,37.4716967865343,127.045418313074
양재점,서울 서초구 남부순환로347길 38 (서초동),ediya,37.4860263770271,127.031487443707
양재중앙점,"서울 서초구 강남대로 221 (양재동, 양재역 환승주차장)",ediya,37.4836850972087,127.034117823374
양재하나로마트점,"서울 서초구 청계산로 10 (양재동, 농협하나로클럽)",ediya,37.4632288044056,127.043530153585
예술의전당점,"서울 서초구 반포대로 32 (서초동, 원일빌딩)",ediya,37.4834385607122,127.012120757084
우면동점,"서울 서초구 바우뫼로 20 (우면동, 고호빌딩)",ediya,37.4699868339835,127.025291195281
잠원논현점,서울 서초구 신반포로 333 (잠원동),ediya,37.51093465194,127.02015109878
청계산입구역점,서울 서초구 신원동,ediya,37.4440189779747,127.062170998757
포이점,서울 서초구 마방로10길 42 (양재동),ediya,37.4756326387006,127.044550865871
함지박사거리점,서울 서초구 방배로 234 우신빌딩,ediya,37.4941611953765,126.989910590285
논골사거리점,서울 성동구 난계로 35 (금호동1가),ediya,37.5555256358422,127.024481346904
뚝섬역점,서울 성동구 상원길 38-1 (성수동1가),ediya,37.5473961667075,127.048714191464
마장동점,서울 성동구 고산자로 339-2 (마장동),ediya,37.5700205589407,127.037356633974
마장역점,서울 성동구 마장로 293-1 (마장동),ediya,37.5659440041462,127.042171365841
상왕십리역점,서울 성동구 무학봉15길 27 (하왕십리동),ediya,37.5637091555598,127.030171840031
서울숲역점,서울 성동구 왕십리로 96-1 (성수동1가),ediya,37.5462971140927,127.044885289891
성동구청점,서울 성동구 고산자로 269 (도선동),ediya,37.5636973196685,127.035773854876
성수2가점,서울 성동구 성덕정길 106 (성수동2가),ediya,37.5371594440377,127.055104789531
성수아카데미점,서울 성동구 성수이로 118 (성수동2가),ediya,37.5451736913181,127.057857254458
성수우리W타워점,서울 성동구 아차산로15길 19 (성수동2가),ediya,37.5447507856542,127.062069655934
성수중앙점,"서울 성동구 성수일로6길 47 (성수동2가, 현성빌딩)",ediya,37.5442986313772,127.055243229076
신금호역점,서울 성동구 금호산길 64 (금호동2가),ediya,37.5538955577205,127.019619326587
옥수동점,서울 성동구 매봉길 12 (옥수동),ediya,37.5452980059274,127.015693205964
옥수역점,서울 성동구 한림말5길 9 (옥수동),ediya,37.542011560152,127.016716439007
왕십리비트플렉스점,서울 성동구 왕십리광장로 17 (행당동),ediya,37.5614417528647,127.038394194396
왕십리센트라스점,서울 성동구 무학로 22 (홍익동),ediya,37.566082525209,127.0303063608
왕십리역점,서울 성동구 왕십리로 309 (행당동),ediya,37.5613776986706,127.034582633625
응봉동점,"서울 성동구 독서당로 381 (응봉동, 현대종합상가)",ediya,37.5501947813107,127.030692950226
장한평역점,서울 성동구 천호대로 426 (용답동),ediya,37.5608945885496,127.066228887268
텐즈힐점,"서울 성동구 무학로 33 (하왕십리동, 텐즈힐)",ediya,37.5691641596929,127.02634785313
행당동점,서울 성동구 고산자로 201 (행당동),ediya,37.5580531667136,127.033764183391
고대개운점,서울 성북구 개운사길 30 (안암동5가),ediya,37.5876829132381,127.029436286155
고대점,서울 성북구 고려대로24길 35 (안암동5가),ediya,37.5846644662531,127.029558844368
국민대점,서울 성북구 정릉로9라길 8 (정릉동),ediya,37.6111659557769,127.000390739198
길음뉴타운점,"서울 성북구 길음로 74 (길음동, 길음 에스에이치빌)",ediya,37.6092896639058,127.021033925155
길음중앙점,"서울 성북구 도봉로 11 (길음동, 삼주빌딩)",ediya,37.6102502835964,127.02987600544
돈암동점,서울 성북구 동소문로 119 (동선동4가),ediya,37.5938144060932,127.017901210644
돈암아리랑점,"서울 성북구 아리랑로 75 (돈암동, 돈암코오롱하늘채)",ediya,37.598830255568,127.013625487132
돌곶이역점,서울 성북구 돌곶이로22길 3 (석관동),ediya,37.6101964263816,127.058098990689
동덕여대점,서울 성북구 화랑로 99 (하월곡동),ediya,37.6034898226234,127.042688569342
동소문동점,서울 성북구 동소문로13길 5 (동소문동4가),ediya,37.5920438955105,127.012838102554
보문역점,서울 성북구 보문로 111 (보문동2가),ediya,37.5849398539909,127.019340463549
석계중앙점,서울 성북구 화랑로40길 61 (석관동),ediya,37.6137693344093,127.064941869055
석관동점,"서울 성북구 돌곶이로8길 22 (석관동, 래미안아트리치)",ediya,37.606524483946,127.062261154976
성신여대역점,서울 성북구 동소문로17길 40 (동소문동6가),ediya,37.5939295699321,127.015893755022
성신여대점,서울 성북구 보문로34길 100 (동선동2가),ediya,37.5912026781491,127.020787546073
안암래미안점,서울 성북구 보문로30가길 42 (안암동1가),ediya,37.5890073652312,127.022029797024
월곡1동점,서울 성북구 오패산로 99 (하월곡동),ediya,37.6107513980687,127.035164406645
월곡동아점,서울 성북구 장월로1길 47 (상월곡동),ediya,37.6062467196839,127.045689125231
월곡중앙점,"서울 성북구 종암로 167 (하월곡동, 동일하이빌뉴시티)",ediya,37.6050587642973,127.030990445726
장위2동점,서울 성북구 화랑로25길 14 (장위동),ediya,37.6093060056288,127.052463640045
장위뉴타운점,서울 성북구 장월로 144-1 (장위동),ediya,37.6177100595708,127.051043617995
장위동점,서울 성북구 월계로40길 7 (장위동),ediya,37.6229473543321,127.048397229405
장위북서울꿈의숲점,서울 성북구 돌곶이로41가길 2 (장위동),ediya,37.6186447150426,127.045615723434
장위중앙점,서울 성북구 장위로 35 (장위동),ediya,37.61446292677,127.04077945532
정릉뉴타운점,"서울 성북구 정릉로 307 (정릉동, 라온유 아파트)",ediya,37.6032285064084,127.017866208389
정릉아리랑점,"서울 성북구 북악산로 851 (정릉동, 정릉2차 e-편한세상)",ediya,37.6002510241826,127.018315403612
정릉점,서울 성북구 보국문로 77 (정릉동),ediya,37.6111423965072,127.008614267602
정릉중앙점,서울 성북구 정릉로 251 (정릉동),ediya,37.6047223777771,127.0119196884
종암동점,서울 성북구 종암로 105 (종암동),ediya,37.599529561702,127.033953910223
하월곡동점,서울 성북구 오패산로 16 (하월곡동),ediya,37.6036628449752,127.037558381835
한성대역점,서울 성북구 동소문로 19 (동소문동1가),ediya,37.5895285651471,127.008101357916
한성대점,서울 성북구 삼선교로 10 (삼선동1가),ediya,37.5877335935159,127.006908254016
가든파이브점,"서울 송파구 충민로 10 (문정동, 가든파이브툴)",ediya,37.4786173172251,127.119106729654
가든파이브테크노관점,"서울 송파구 충민로 66 (문정동, 가든파이브라이프)",ediya,37.4776148442516,127.124961768886
가락몰점,"서울 송파구 양재대로 932 (가락동, 가락몰 판매동)",ediya,37.4945376921828,127.108713599026
가락중앙점,서울 송파구 송이로 87 (가락동),ediya,37.4983419879792,127.120795228829
개롱역점,"서울 송파구 오금로 407 (오금동, 상아아파트)",ediya,37.4986413987929,127.136586683882
거여점,서울 송파구 오금로 497 (거여동),ediya,37.4934826515405,127.144199765656
마천사거리점,"서울 송파구 마천로 264 (거여동, 흥일빌딩)",ediya,37.4980805219712,127.146149512256
문정KDU타워점,"서울 송파구 정의로 70 (문정동, 케이디유타워)",ediya,37.486047580834,127.115467768303
문정문현점,서울 송파구 새말로8길 30 (문정동),ediya,37.4801330788098,127.126649419787
방이미성점,"서울 송파구 오금로 251 (방이동, 잠실3차한양아파트)",ediya,37.5061013149196,127.121537217013
방이역점,서울 송파구 위례성대로18길 32 (방이동),ediya,37.5095632553432,127.124724557892
방이초교점,서울 송파구 가락로 280 (방이동),ediya,37.5127330893982,127.120016251041
삼전역점,서울 송파구 백제고분로 263 (삼전동),ediya,37.5027813622658,127.095799159025
삼전중앙점,서울 송파구 백제고분로27길 5 (삼전동),ediya,37.5036697979808,127.092579345276
서울삼성내과점,"서울 송파구 백제고분로 126 (잠실동, 오룡빌딩)",ediya,37.5061702039866,127.08075330646
석촌백제점,"서울 송파구 백제고분로39길 15 (석촌동, 삼경빌딩)",ediya,37.5056617466954,127.104455184706
석촌사거리점,"서울 송파구 송파대로 409 (석촌동, 범양빌딩)",ediya,37.5035006615978,127.108284732156
석촌역점,"서울 송파구 송파대로 456 (송파동, 웅현빌딩)",ediya,37.5071903282914,127.105841889845
송파동점,"서울 송파구 백제고분로41길 5 (송파동, 태원빌딩)",ediya,37.5067248967655,127.108394911161
송파문정점,서울 송파구 송이로 159 (가락동),ediya,37.4929585994279,127.125346805693
송파올림픽훼미리타운점,"서울 송파구 중대로 24 (문정동, 올림픽훼밀리타운 아카데미 상가)",ediya,37.488125746629,127.111059136873
송파위례점,"서울 송파구 위례광장로 188 (장지동, 아이온스퀘어)",ediya,37.481085538274,127.142394775398
송파잠실점,서울 송파구 삼전로 95 (잠실동),ediya,37.507036395059,127.089906986473
송파파인타운점,"서울 송파구 충민로2길 28 (장지동, 대진플라자2)",ediya,37.4771576631775,127.127416903996
송파풍납점,서울 송파구 강동대로9길 17-1 (풍납동),ediya,37.5280970384524,127.11654304801
송파하비오점,"서울 송파구 송파대로 111 (문정동, 파크하비오)",ediya,37.4796870553794,127.124979804141
송파한양점,"서울 송파구 가락로 165 (송파동, 위례캐슬빌)",ediya,37.5037769729035,127.113590203805
오금점,"서울 송파구 오금로 306 (가락동, 가락스타클래스)",ediya,37.5028743435851,127.126114097948
오금중앙점,"서울 송파구 위례성대로22길 18 (오금동, 이시돌빌딩)",ediya,37.5086858136158,127.13035617547
올림픽공원점,서울 송파구 올림픽로 354 (방이동),ediya,37.5161703232576,127.109737321138
올림픽프라자점,서울 송파구 양재대로 1222 (방이동),ediya,37.5157276361757,127.131063164753
위례포레샤인점,"서울 송파구 위례순환로 477 (장지동, 위례포레샤인23단지)",ediya,37.4751100001573,127.136558093148
잠실나루역점,"서울 송파구 올림픽로35길 104 (신천동, 장미아파트)",ediya,37.5198173607856,127.099297662181
잠실본동점,"서울 송파구 백제고분로 172 (잠실동, 제이케이빌딩)",ediya,37.5047208554957,127.085852293902
잠실역점,"서울 송파구 송파대로 567 (잠실동, 잠실주공아파트)",ediya,37.5131381759342,127.09304868009
종합운동장역점,"서울 송파구 올림픽로 76 (잠실동, J타워)",ediya,37.5115603565131,127.079181383259
CBS본사점,서울 양천구 목동서로 159-1 (목동),ediya,37.5282318199269,126.874990723123
강서초교점,서울 양천구 오목로 48 (신월동),ediya,37.5220328857283,126.842960509946
남부지방법원점,"서울 양천구 은행정로4길 25 (신정동, SM엘루이아파트)",ediya,37.5215008347482,126.862615322582
목3동점,"서울 양천구 목동중앙북로 38 (목동, 롯데캐슬위너아파트)",ediya,37.5479038468127,126.866954843863
목4동점,서울 양천구 목동중앙본로7길 46 (목동),ediya,37.5394782177954,126.866132172967
목동남부점,서울 양천구 목동남로 46 (신정동),ediya,37.5087557940897,126.864731084897
목동등촌로점,서울 양천구 등촌로 180 (목동),ediya,37.5456533733203,126.862739051043
목동로데오점,서울 양천구 목동로 219 (신정동),ediya,37.5279467362177,126.863821477728
목동센트럴아이파크위브점,서울 양천구 남부순환로 603 (신월동),ediya,37.5152188104643,126.840692066592
목동신목점,"서울 양천구 목동중앙로 85 (목동, 강산아파트)",ediya,37.5370101136194,126.871488815731
목동신트리점,"서울 양천구 신정로 312 (신정동, 뉴프라자)",ediya,37.5132800705293,126.855504942568
목동아델리체점,"서울 양천구 중앙로43길 14 (신정동, 래미안 목동아델리체)",ediya,37.5204176021651,126.851340568488
목동역점,서울 양천구 오목로 227 (신정동),ediya,37.5260735378528,126.862717577317
목동중앙점,"서울 양천구 목동서로 287 (신정동, 동문비젼오피스텔)",ediya,37.5215174537183,126.869076255667
목동파라곤점,서울 양천구 목동서로 155 (목동),ediya,37.5299956155624,126.875071951863
목동파리공원점,서울 양천구 목동동로 379 (목동),ediya,37.5356098520363,126.878713495139
서남병원점,서울 양천구 신정동,ediya,37.5185526780281,126.854354325392
신월5동점,서울 양천구 화곡로 50 (신월동),ediya,37.5391685443624,126.827450259976
신월7동점,서울 양천구 지양로 79 (신월동),ediya,37.5224300656382,126.832990682262
신월사거리점,서울 양천구 남부순환로 353 (신월동),ediya,37.5356741789955,126.828923065237
신월신곡시장점,서울 양천구 신월로 172 (신월동),ediya,37.518310621798,126.842656786225
신정네거리역점,서울 양천구 중앙로 282 (신정동),ediya,37.5215539663804,126.85257881028
신정서부점,서울 양천구 신정로11길 50-15 (신정동),ediya,37.5122437279751,126.838326742145
신정역점,서울 양천구 오목로 155 (신정동),ediya,37.5249655687882,126.854653977172
양천구청점,서울 양천구 목동동로 63 (신정동),ediya,37.5153165387272,126.86231084967
오목교대학학원점,서울 양천구 오목로 319 (목동),ediya,37.5250775226211,126.873065467653
오목교역점,서울 양천구 신목로 102 (목동),ediya,37.5235884341471,126.875774509668
KBS별관점,"서울 영등포구 국제금융로8길 27-9 (여의도동, 동북빌딩)",ediya,37.5196744579443,126.928930989749
국회의사당역점,"서울 영등포구 의사당대로 22 (여의도동, 이룸센터)",ediya,37.526869878743,126.917843631999
남부고용센터점,서울 영등포구 양산로 71 (양평동3가),ediya,37.525029038125,126.891103928762
당산버드나루점,서울 영등포구 버드나루로 87 (영등포동7가),ediya,37.5259675849267,126.908721351403
당산역점,"서울 영등포구 당산로 222 (당산동5가, 당산디오빌)",ediya,37.5332447828491,126.902291122854
당산중앙점,서울 영등포구 당산로 159 (당산동4가),ediya,37.5288505614052,126.89756596732
대림1동점,서울 영등포구 도림로 198 (대림동),ediya,37.4964305846605,126.902830683831
대림3동점,서울 영등포구 대림로 212 (대림동),ediya,37.4995960176959,126.898146282157
대림역점,서울 영등포구 도림로31길 2 (대림동),ediya,37.4925289257081,126.895919529889
도림사거리점,서울 영등포구 도림로 326 (신길동),ediya,37.5065848840091,126.9018098073
도림점,"서울 영등포구 도신로15길 40 (도림동, 도림빌딩)",ediya,37.5086080352152,126.896572544617
라이프점,"서울 영등포구 63로 40 (여의도동, 라이프오피스텔)",ediya,37.5196351977246,126.939136417577
문래역점,서울 영등포구 문래로 89 (문래동3가),ediya,37.5196532591065,126.891944412217
보라매역점,서울 영등포구 여의대방로 141 (신길동),ediya,37.4996793942781,126.919957889888
서여의도점,"서울 영등포구 국회대로72길 4 (여의도동, 아이비피아빌딩)",ediya,37.5303335810073,126.919916432847
선유도역점,서울 영등포구 양평로 126 (양평동5가),ediya,37.5382334285342,126.893922350178
신길성애병원점,서울 영등포구 여의대방로53길 27 (신길동),ediya,37.5118686256451,126.921547155805
신길썬프라자점,서울 영등포구 신길로 42 (신길동),ediya,37.4964707028524,126.908618171148
신길아이파크점,서울 영등포구 도림로 280 (신길동),ediya,37.5029405804778,126.904213869543
신길역점,서울 영등포구 영등포로 353 (신길동),ediya,37.5150693438158,126.918084717307
신길중앙점,서울 영등포구 도신로 229 (신길동),ediya,37.5122010616063,126.916502417334
신풍역점,서울 영등포구 신풍로 52-1 (신길동),ediya,37.4999446881121,126.911787002984
양평동2가점,"서울 영등포구 선유서로25길 19 (양평동2가, 오목교투웨니퍼스트)",ediya,37.5245026993589,126.883941521256
여의나루역점,서울 영등포구 여의나루로 113 (여의도동),ediya,37.5260558187275,126.930769729764
여의도농협재단점,"서울 영등포구 국제금융로8길 2 (여의도동, 농협재단빌딩)",ediya,37.5220163808659,126.930048684376
여의도역점,"서울 영등포구 의사당대로 108 (여의도동, 아일렉스)",ediya,37.5210144173791,126.923991634451
영등포knk점,"서울 영등포구 영신로 220 (영등포동8가, KnK디지털타워)",ediya,37.5268034272278,126.904261652136
영등포구청점,서울 영등포구 당산로 110 (당산동3가),ediya,37.5245002869988,126.896568822472
영등포그랜드점,"서울 영등포구 양산로9길 15 (양평동3가, 그랜드타워)",ediya,37.526790955173,126.888600855285
영등포아크로타워점,"서울 영등포구 국회대로54길 10 (영등포동7가, 아크로타워 스퀘어)",ediya,37.5236586861947,126.906430209934
영등포에이스점,서울 영등포구 경인로 775 (문래동3가),ediya,37.5147464245043,126.897536835727
영등포점,서울 영등포구 영중로 16-1 (영등포동3가),ediya,37.5178785408619,126.906161197095
영등포중앙점,서울 영등포구 영중로 37 (영등포동4가),ediya,37.5194800844232,126.904711721123
영등포코레일점,"서울 영등포구 경인로 846 (영등포동, 영등포 민자역사)",ediya,37.5156680341198,126.907665995469
영등포홈플러스점,"서울 영등포구 당산로 42 (문래동3가, 홈플러스)",ediya,37.5182396969791,126.895880210522
한강성심병원점,서울 영등포구 버드나루로 51 (영등포동2가),ediya,37.5230740112737,126.910598895613
한국수출입은행점,"서울 영등포구 은행로 38 (여의도동, 한국수출입은행빌딩)",ediya,37.5286372332436,126.923399003703
힐스테이트클래시안점,"서울 영등포구 신길로28길 9 (신길동, 힐스테이트 클래시안)",ediya,37.5033192540847,126.910985829062
IBK고객센터점,"서울 용산구 한남대로 72 (한남동, IBK기업은행고객센터)",ediya,37.5350655505019,127.007055343205
동부이촌동점,서울 용산구 이촌로77길 19 (이촌동),ediya,37.5205536707079,126.974666973357
동자동점,서울 용산구 후암로 93 (동자동),ediya,37.5533528859435,126.975117496502
삼각지점,서울 용산구 한강대로 138 (한강로2가),ediya,37.5314472493671,126.970454816197
숙대입구역점,서울 용산구 한강대로 289 (갈월동),ediya,37.5440581079411,126.971964095596
순천향병원점,서울 용산구 대사관로 72,ediya,37.5330952126175,127.005947068599
용문점,서울 용산구 원효로41길 73 (원효로2가),ediya,37.5358493643531,126.961137956254
용산원효점,"서울 용산구 원효로 70 (원효로4가, 신정빌딩)",ediya,37.5325054872953,126.951642152118
용산중앙점,서울 용산구 한강대로 52-1 (한강로3가),ediya,37.5254293060308,126.964651687385
용산청파점,"서울 용산구 청파로71길 10 (청파동1가, 새마을금고)",ediya,37.5494639189725,126.969413497587
용산효창점,서울 용산구 효창원로66길 2 (효창동),ediya,37.5405650922374,126.962195166581
용산후암점,"서울 용산구 후암로 40-2 (후암동, 성원빌딩)",ediya,37.5495283931423,126.977694955629
원효로점,서울 용산구 원효로 257 (원효로1가),ediya,37.5405688166185,126.969114679317
이태원역점,서울 용산구 이태원로 176 (이태원동),ediya,37.5342678321451,126.993425922089
갈현점,서울 은평구 갈현로 268 (갈현동),ediya,37.6206319523994,126.916658816351
구산역점,서울 은평구 연서로 148 (대조동),ediya,37.6119981005559,126.917623565075
구파발역점,"서울 은평구 진관2로 29-21 (진관동, 드림스퀘어)",ediya,37.635741734904,126.919341649662
녹번동점,"서울 은평구 진흥로 156 (녹번동, 신명빌딩)",ediya,37.6087386251395,126.926978658641
녹번중앙점,"서울 은평구 통일로 635 (녹번동, 녹번동메카오피스텔)",ediya,37.6035067396377,126.934630829335
독바위역점,"서울 은평구 불광로 128 (불광동, 배진하우스)",ediya,37.6181530174985,126.933307947439
백련산아이파크점,"서울 은평구 응암로 264 (응암동, 서울빌딩)",ediya,37.5952888457558,126.918874876038
본서부병원점,"서울 은평구 응암로 337 (응암동, 빛터룩스 빌딩)",ediya,37.6013078542665,126.922128486696
불광역점,서울 은평구 통일로 731 (대조동),ediya,37.6106226649216,126.929466316371
불광연서로점,서울 은평구 연서로 275 (불광동),ediya,37.6209400997168,126.924857478369
불광중앙점,서울 은평구 불광로 59 (불광동),ediya,37.6123338073332,126.931737818222
새절역점,서울 은평구 가좌로 272 (신사동),ediya,37.5931808436253,126.913609344385
서광교회점,"서울 은평구 통일로 951 (갈현동, 서광교회)",ediya,37.6277461902526,126.919185124303
수색역점,서울 은평구 수색로 250 (수색동),ediya,37.581909409762,126.896349633969
역촌동점,서울 은평구 갈현로 82 (역촌동),ediya,37.6052664482641,126.910685555782
역촌사거리점,서울 은평구 서오릉로 100 (대조동),ediya,37.6089219541909,126.920931605295
역촌역점,서울 은평구 진흥로 95 (역촌동),ediya,37.6054420445568,126.922124290438
역촌진흥로점,서울 은평구 진흥로1길 3 (역촌동),ediya,37.6007663433041,126.9186327061
연신내역점,서울 은평구 통일로 855-9 (갈현동),ediya,37.6188948297727,126.919884176889
연신내중앙점,서울 은평구 통일로 825 (대조동),ediya,37.6170577040441,126.922703769186
연신내통일로점,서울 은평구 통일로 876 (불광동),ediya,37.6212043252743,126.920274642424
은평구청점,서울 은평구 은평로 197 (녹번동),ediya,37.6016437882797,126.92951057903
은평뉴타운점,"서울 은평구 진관3로 70 (진관동, 은평뉴타운상림마을)",ediya,37.6422598317106,126.923141080933
은평이마트점,"서울 은평구 은평로 111 (응암동, 은평이마트)",ediya,37.6008254685415,126.920513478627
응암역점,"서울 은평구 연서로 9 (역촌동, 센타폴리스)",ediya,37.6000995302827,126.91556845327
응암오거리점,서울 은평구 응암로 211 (응암동),ediya,37.5909016967783,126.917130620892
응암중앙점,서울 은평구 응암로 183 (응암동),ediya,37.5884286356527,126.916593627583
증산동점,서울 은평구 증산서길 78 (증산동),ediya,37.5833665429509,126.906550600654
경복궁역점,"서울 종로구 자하문로 7 (체부동, 성명빌딩)",ediya,37.5767147965826,126.972206795305
경복궁역점,서울 종로구 자하문로 7 (체부동),ediya,37.5767147965826,126.972206795305
경희궁점,서울 종로구 경희궁1길 16 (신문로2가),ediya,37.5716953499755,126.970696336246
광화문점,서울 종로구 세종대로23길 15 (도렴동),ediya,37.5715080785052,126.975654580061
광화문트윈트리타워점,"서울 종로구 율곡로 6 (중학동, 트윈 트리 빌딩)",ediya,37.5754538625026,126.979775832051
낙원동점,서울 종로구 낙원동,ediya,37.5725577161916,126.988607627918
대학로점,서울 종로구 대학로10길 17 (동숭동),ediya,37.5820961487244,127.003178474246
독립문역점,서울 종로구 통일로 266 (무악동),ediya,37.5758473655224,126.956783269179
동대문역점,"서울 종로구 율곡로 286 (종로6가, 야드인빌딩)",ediya,37.571849178392,127.008052918051
동묘역점,서울 종로구 종로 354 (숭인동),ediya,37.5731062277843,127.016794023623
방통대점,서울 종로구 대학로 81-1 (연건동),ediya,37.5785001293549,127.001915143821
배화여대점,서울 종로구 필운대로1길 35 (필운동),ediya,37.5777983064688,126.967517691017
북촌마을점,서울 종로구 북촌로5길 39 (화동),ediya,37.5793376128612,126.982701926649
삼일빌딩점,서울 종로구 삼일대로15길 13 (관철동),ediya,37.5687803685297,126.986738925326
상명대점,서울 종로구 홍지동,ediya,37.6007910021228,126.956587544473
성균관대점,서울 종로구 성균관로 8 (명륜2가),ediya,37.5836585925455,126.998337309053
숭인점,서울 종로구 숭인동길 6 (숭인동),ediya,37.5752699068368,127.021595350369
신설점,서울 종로구 난계로29길 30 (숭인동),ediya,37.5742373886978,127.021476077131
안국역사점,"서울 종로구 율곡로 지하 62 (안국동, 3호선 안국역)",ediya,37.5767203705556,126.985823042976
종각점,서울 종로구 삼일대로19길 24 (관철동),ediya,37.5696589593606,126.986215016952
종로3가점,서울 종로구 종로 126 (종로3가),ediya,37.5701023901699,126.991536823031
종로4가점,서울 종로구 김상옥로 1 (인의동),ediya,37.573504922526,126.997895712568
종로5가점,서울 종로구 대학로 33 (효제동),ediya,37.5740772390143,127.001830242593
종로교차로점,서울 종로구 동호로 406-1 (종로5가),ediya,37.5706007422209,127.002255096369
종로구청점,서울 종로구 수송동,ediya,37.5736775113542,126.980610942957
종로르메이에르점,서울 종로구 종로1가 르메이에르종로타운,ediya,37.5709578373114,126.977928770123
종로삼일대로점,서울 종로구 삼일대로 390-1 (관철동),ediya,37.5694514711928,126.987964250478
종로타워점,"서울 종로구 종로 51 (종로2가, 종로타워)",ediya,37.5707451369668,126.983611410428
창덕궁점,서울 종로구 돈화문로 41-1 (묘동),ediya,37.5722791868711,126.991428924631
창신동점,서울 종로구 종로 316-1 (창신동),ediya,37.5720247998631,127.012925903352
창신중앙점,서울 종로구 지봉로 64 (숭인동),ediya,37.5757294269114,127.015830340656
탑골공원점,서울 종로구 낙원동,ediya,37.5725577161916,126.988607627918
혜화동로터리점,서울 종로구 혜화로 3-1 (혜화동),ediya,37.5860668674463,127.000571872704
혜화역점,서울 종로구 창경궁로 258-15 (명륜2가),ediya,37.5835966141203,127.00065076533
IBK본점,"서울 중구 을지로 79 (을지로2가, 기업은행)",ediya,37.5664935315447,126.986565470789
YTN점,서울 중구 세종대로1길 11 (봉래동1가),ediya,37.5582057207315,126.972550714219
광희동점,서울 중구 마른내로 165-1 (광희동1가),ediya,37.5646262614728,127.006509285173
다동점,서울 중구 다동길 46 (다동),ediya,37.5678614943581,126.981726148037
동국대후문점,"서울 중구 창경궁로 2 (충무로5가, 남경빌딩)",ediya,37.5625562142179,126.998689780725
동대문점,서울 중구 을지로43길 38 (을지로6가),ediya,37.5677113760105,127.007765983844
동대문팀204점,"서울 중구 마장로 30 (신당동, Team204)",ediya,37.5677127859728,127.013196592402
동평화점,서울 중구 청계천로 318 (신당동),ediya,37.5693565845148,127.013791492597
만리동고개점,"서울 중구 만리재로 175 (만리동2가, 서울역센트럴자이),402동 102호",ediya,37.5547908528642,126.964454371144
명동거리점,"서울 중구 명동8가길 7 (충무로2가, 프리엠상가)",ediya,37.5617602798822,126.985404271845
명동역점,서울 중구 퇴계로 103 (충무로1가),ediya,37.5608740391449,126.983217097792
명동중앙점,"서울 중구 명동7길 21 (을지로2가, 명동아르누보센텀)",ediya,37.5647312946952,126.983858910559
북창동점,서울 중구 남대문로1길 57-1 (태평로2가),ediya,37.5636463684929,126.977568053773
서소문점,서울 중구 서소문로11길 8 (서소문동),ediya,37.5632737727618,126.973094520683
서울시청점,"서울 중구 세종대로20길 23 (무교동, 원창빌딩)",ediya,37.5671518187227,126.978729588014
신당점,서울 중구 다산로35길 11 (신당동),ediya,37.563539806566,127.014848931952
신당중앙점,서울 중구 퇴계로 455 (황학동),ediya,37.5655864141353,127.022323414056
약수역점,서울 중구 동호로 186-13 (신당동),ediya,37.5545374942506,127.01163453252
오장동점,서울 중구 마른내로 109-1 (오장동),ediya,37.5646143674959,127.000127901565
을지로3가점,서울 중구 수표로 45 (저동2가),ediya,37.5653393912938,126.989596182183
을지로중앙점,서울 중구 마른내로 49 (인현동1가),ediya,37.5644739023203,126.993478277513
정동점,서울 중구 정동길 2-1 (정동),ediya,37.5679813745371,126.969346954167
중림브라운스톤점,"서울 중구 청파로 464 (중림동, 브라운스톤서울)",ediya,37.5608187887289,126.968225883547
중림점,서울 중구 청파로 464 (중림동),ediya,37.5608187887289,126.968225883547
청구역점,서울 중구 다산로 181-2 (신당동),ediya,37.5597887880549,127.013242617116
충무로3가점,서울 중구 퇴계로27길 31 (충무로3가),ediya,37.5625664386203,126.991246113258
충무로점,서울 중구 퇴계로 188 (필동1가),ediya,37.5608336414794,126.992554920561
충무아트홀점,서울 중구 퇴계로 381-1 (신당동),ediya,37.565280545198,127.01399810196
충무필동점,서울 중구 퇴계로 218-5 (필동2가),ediya,37.5613835156837,126.996277998832
충정로역점,"서울 중구 중림로 10 (중림동, 중림동 삼성 사이버 빌리지)",ediya,37.5589266608979,126.964320892997
태평로점,서울 중구 세종대로11길 26 (서소문동),ediya,37.5623140006705,126.974582779311
퇴계로2길점,서울 중구 퇴계로2길 1 (남창동),ediya,37.5575646098656,126.977410863982
한국은행점,서울 중구 남대문로 29-2 (남대문로3가),ediya,37.5614426077681,126.978964253808
황학롯데캐슬점,"서울 중구 청계천로 400 (황학동, 롯데캐슬베네치아)",ediya,37.5708105464699,127.021463886656
회현SK리더스점,"서울 중구 퇴계로 72 (회현동1가, 리더스뷰남산)",ediya,37.5591253443035,126.980603849217
금란망우점,서울 중랑구 망우로 460 (망우동),ediya,37.6001065609187,127.103136691889
동원사거리점,"서울 중랑구 겸재로 240 (면목동, 행복오피스텔)",ediya,37.5896366083419,127.09416998992
망우동점,서울 중랑구 망우로 416 (망우동),ediya,37.5991657770242,127.098351137589
망우중앙점,"서울 중랑구 용마산로115길 109 (망우동, 한일써너스빌리젠시2단지)",ediya,37.5974663223384,127.094160266661
망우코레일점,"서울 중랑구 망우로55길 11-10 (상봉동, 망우역)",ediya,37.5992876153903,127.092756577852
먹골역점,서울 중랑구 동일로157길 13 (묵동),ediya,37.6097411262067,127.076897926489
면목경남아너스빌점,서울 중랑구 면목로27길 92 (면목동),ediya,37.5742668436457,127.080518532414
면목늘찬병원점,"서울 중랑구 동일로 643 (면목동, 늘찬병원)",ediya,37.5879908042663,127.079680860838
면목본동점,서울 중랑구 면목로 370 (면목동),ediya,37.5849498546653,127.088544738123
면목역점,"서울 중랑구 면목로 429 (면목동, 킴스아파트)",ediya,37.5901934659094,127.086826066156
묵동자이점,"서울 중랑구 동일로 932 (묵동, 묵동자이아파트)",ediya,37.6138393830212,127.077557139207
봉화산역점,서울 중랑구 신내로 211 (신내동),ediya,37.6163496295774,127.092668240549
사가정아이파크점,"서울 중랑구 동일로92길 57 (면목동, 메디포레)",ediya,37.5834835948977,127.083196727099
사가정역점,서울 중랑구 면목로 325 (면목동),ediya,37.5811367688006,127.088173980648
상봉엠코점,"서울 중랑구 망우로 353 (상봉동, 상봉 프레미어스 엠코)",ediya,37.5983328190955,127.091624142481
상봉역점,서울 중랑구 망우로 277 (상봉동),ediya,37.5960553404392,127.08342099906
상봉중앙점,서울 중랑구 망우로 316 (상봉동),ediya,37.5965223858128,127.087565034141
서울상봉1동점,서울 중랑구 상봉중앙로 36 (상봉동),ediya,37.6002908828924,127.087790157773
서울중랑경찰서점,서울 중랑구 신내역로3길 40-11 (신내동),ediya,37.6180111392766,127.104938141537
서울중화초등학교점,"서울 중랑구 신내로7가길 7 (신내동, 제이리옴)",ediya,37.6023410867238,127.095449921433
서일중앙점,"서울 중랑구 용마산로 394 (면목동, 해동검도)",ediya,37.5866519523067,127.095551256708
신내동점,서울 중랑구 봉화산로 215 (신내동),ediya,37.6076555866366,127.09654291583
양원남부점,서울 중랑구 양원역로 25-10 (망우동),ediya,37.6031300165652,127.107376587446
양원역점,서울 중랑구 양원역로14가길 24 (망우동),ediya,37.607408640831,127.106775480666
용마산역점,서울 중랑구 면목로 254-1 (면목동),ediya,37.5754345842239,127.085692400436
중랑교차로점,서울 중랑구 동일로 683 (면목동),ediya,37.5914442733687,127.079864348337
중랑역점,서울 중랑구 망우로 198 (상봉동),ediya,37.5933277359226,127.074871189969
중화동점,서울 중랑구 동일로129길 1 (중화동),ediya,37.5993838458016,127.079542626772
중화역점,"서울 중랑구 동일로 815, 1층",ediya,37.6031305108841,127.078891490441
화랑대역점,"서울 중랑구 신내로25가길 2 (묵동, 현동학당)",ediya,37.6194780819731,127.08419542632
